,formatted_address,input_string,latitude,longitude,number_of_results,postcode,status
0,"E Stassney Ln & S Pleasant Valley Rd, Austin, TX 78744, USA",East Pleasant Valley And Stassney in Austin (TX),30.1940034,-97.74473669999999,1,78744,OK
1,"4800 Cottonwood St, Austin, TX 78744, USA",4800 Cottonwood St in Austin (TX),30.1965928,-97.7332472,1,78744,OK
2,"700 Guadalupe St, Austin, TX 78701, USA",Guadalupe/St. Johns in Austin (TX),30.2704002,-97.7461268,2,78701,OK
3,"4200 Smith School Rd, Austin, TX 78744, USA",4200 Smith School Rd in Austin (TX),30.1928347,-97.7152788,1,78744,OK
4,"11699 James B Connolly Ln, Austin, TX 78748, USA",11699 James B Connolly Ln in Austin (TX),30.1507081,-97.8378291,1,78748,OK
5,"Sandshof Dr & Loyola Ln, Austin, TX 78724, USA",Loyola And Sandshof in Austin (TX),30.2989395,-97.6456121,1,78724,OK
6,"15207 Tacon Ln, Pflugerville, TX 78660, USA",15207 Tacon Ln in Pflugerville (TX),30.4415189,-97.65502289999999,1,78660,OK
7,"11204 Liberty Farms Dr, Austin, TX 78754, USA",11204 Liberty Farms Drive in Austin (TX),30.3610045,-97.64186339999999,1,78754,OK
8,"7619 E Ben White Blvd, Austin, TX 78741, USA",7619 E Ben White Blvd in Austin (TX),30.2172074,-97.6917385,1,78741,OK
9,"2115 Campfield Pkwy, Austin, TX 78745, USA",2115 Campfield Pkwy in Austin (TX),30.19075909999999,-97.8171866,1,78745,OK
10,"13425 Coomes Dr, Del Valle, TX 78617, USA",13425 Coomes Dr in Del Valle (TX),30.17043,-97.61207830000001,1,78617,OK
11,"5630 Wagon Train Rd, Austin, TX 78749, USA",5630 Wagon Train Rd in Austin (TX),30.2228981,-97.86180809999999,1,78749,OK
12,"704 Cuernavaca Dr N, Austin, TX 78733, USA",704 Cuernavaca Dr N in Austin (TX),30.3321203,-97.8689927,1,78733,OK
13,"20412 Keilman Ln, Pflugerville, TX 78660, USA",20412 Keilman Ln in Travis (TX),30.491573,-97.59187569999999,1,78660,OK
14,"7901 Metropolis Dr, Austin, TX 78744, USA",7901 Metrololis Dr in Austin (TX),30.2056688,-97.69059349999999,1,78744,OK
15,"E Riverside Dr, Austin, TX, USA",E Riverside Dr & Wickersham Ln in Austin (TX),30.2313978,-97.7166548,1,,OK
16,"W Dittmar Rd & Forest Wood Rd, Austin, TX 78745, USA",Forest Wood/Dittmar in Austin (TX),30.1857738,-97.80149,1,78745,OK
17,"600 W Carrie Manor St, Manor, TX 78653, USA",600 W Carrie Manor St in Travis (TX),30.3402471,-97.563749,1,78653,OK
18,"10100 Wolftrap Dr, Austin, TX 78749, USA",10100 Wolftrap Dr in Austin (TX),30.1847609,-97.85618819999999,1,78749,OK
19,"Autumn Bay Dr & Montezuma St, Austin, TX 78744, USA",Autumn Bay Dr And Montezuma St in Austin (TX),30.1984437,-97.69717399999999,1,78744,OK
20,,3300 Killingsworth Ln. #307 in Pflugerville (TX),,,0,,REQUEST_DENIED
21,"Webberville Rd, Austin, TX, USA",Webberville Road & East 12Th Street in Austin (TX),30.2760506,-97.68884639999999,5,,OK
22,"W Dittmar Rd & Dempsey Ln, Austin, TX 78748, USA",West Dittmar And Dempsey Lane in Austin (TX),30.1855116,-97.8095457,1,78748,OK
23,"15100 Stave Oak Ln, Austin, TX 78724, USA",15100 Stave Oak Lane in Austin (TX),30.2523304,-97.580824,1,78724,OK
24,"Barton Point Dr, Austin, TX 78733, USA",Barton Point Drive in Austin (TX),30.2957882,-97.89618349999999,1,78733,OK
25,"6430 S IH 35 Frontage Rd, Austin, TX 78745, USA",6430 S Ih 35 Frontage Rd in Austin (TX),30.1913549,-97.77102219999999,1,78745,OK
26,"400 W Anderson Ln, Austin, TX 78752, USA",400 West Anderson in Austin (TX),30.346493,-97.70742,1,78752,OK
27,"6118 Fairway St, Austin, TX 78741, USA",6118 Fairway Street in Austin (TX),30.2295189,-97.70241519999999,1,78741,OK
28,"4106 N Lamar Blvd, Austin, TX 78756, USA",4106 N Lamar Blvd in Austin (TX),30.3094768,-97.7407154,1,78756,OK
29,"11609 Raymond C Ewry Ln, Austin, TX 78748, USA",11609 Raymond C. Ewry in Austin (TX),30.1520053,-97.8410237,1,78748,OK
30,"14745 Merrilltown Dr, Austin, TX 78728, USA",Merrilltown Drive And Mopac Expressway in Austin (TX),30.4490092,-97.6931467,1,78728,OK
31,"Riverstone Dr & Garcreek Cir, Austin, TX 78724, USA",Garcreek Circle And Riverstone Drive in Austin (TX),30.2933925,-97.63032969999999,1,78724,OK
32,"4125 Seldalia Trail, Austin, TX 78732, USA",4125 Saldelia Trl in Austin (TX),30.38265969999999,-97.8886795,1,78732,OK
33,"14400 Harris Ridge Blvd, Pflugerville, TX 78660, USA",14400 Harris Ridge Blvd in Travis (TX),30.42046359999999,-97.6447377,1,78660,OK
34,"1620 Old Lockhart Rd, Buda, TX 78610, USA",1620 Old Lockhart Road in Travis (TX),30.0791584,-97.73188940000001,1,78610,OK
35,"Turnstone Dr & S Pleasant Valley Rd, Austin, TX 78744, USA",Turnstone And Pleasant Valley in Austin (TX),30.1848952,-97.74500289999999,1,78744,OK
36,"4411 Whispering Valley Dr, Austin, TX 78727, USA",4411 Whispering Valley in Austin (TX),30.4134834,-97.7307623,1,78727,OK
37,"6500 E William Cannon Dr, Austin, TX 78744, USA",6500 E William Cannon Dr in Austin (TX),30.168598,-97.736875,1,78744,OK
38,"E Riverside Dr, Austin, TX, USA",E Riverside Dr & S Pleasant Valley Rd in Austin (TX),30.2313978,-97.7166548,1,,OK
39,"Mossycup Ln & Netleaf Rd, Forest Bluff, TX 78724, USA",Netleaf Rd And Mossycup Ln in Austin (TX),30.2549711,-97.58054489999999,1,78724,OK
40,"116 E Parsons St, Manor, TX 78653, USA",116 E Parsons St in Austin (TX),30.3407068,-97.5570305,1,78653,OK
41,"1414 Gorham St, Austin, TX 78758, USA",1414 Gorham Street in Austin (TX),30.3913941,-97.6944314,1,78758,OK
42,"19304 Blake Manor Rd, Manor, TX 78653, USA",19304 Black Manor Rd in Travis (TX),30.285126,-97.50906499999999,1,78653,OK
43,"11215 Research Blvd, Austin, TX 78759, USA",11215 Research Boulevard in Austin (TX),30.4086948,-97.7444024,1,78759,OK
44,,7610 Cameron Road #2110 in Austin (TX),,,0,,REQUEST_DENIED
45,"7201 Levander Loop, Austin, TX 78702, USA",7201 Levander Loop in Austin (TX),30.2527847,-97.6904186,1,78702,OK
46,"Chaparral Trail & Palo Blanco Ln, Austin, TX 78744, USA",Chaparral Trail And Palo Blanco Lane in Austin (TX),30.196156,-97.74902519999999,1,78744,OK
47,"Loyola Ln & Decker Ln, Austin, TX 78724, USA",Loyola Ln And Decker Ln in Austin (TX),30.2912881,-97.62793470000001,1,78724,OK
48,"5525 Foxfield Ln, Austin, TX 78738, USA",5525 Foxfield Ln in Travis (TX),30.3048189,-97.980091,1,78738,OK
49,"Burnet Rd & W Anderson Ln, Austin, TX 78757, USA",Anderson Ln And Burnet Rd in Austin (TX),30.3560922,-97.7309057,1,78757,OK
50,"13908 Tophill Cir, Pflugerville, TX 78660, USA",13908 Tophill Cir in Travis (TX),30.407624,-97.630562,1,78660,OK
51,"1715 W Cesar Chavez St, Austin, TX 78703, USA",1715 W Cesar Chavez St in Austin (TX),30.2735577,-97.7667348,1,78703,OK
52,"5601 Manchaca Rd, Austin, TX 78745, USA",5601 Manchaca Rd in Austin (TX),30.2147238,-97.79739180000001,1,78745,OK
53,"Conestoga Trail & Ponciana Dr, Austin, TX 78744, USA",Conestoga And Ponciana in Austin (TX),30.1956704,-97.7573592,1,78744,OK
54,"4106 N Lamar Blvd, Austin, TX 78756, USA",4106 N Lamar Blvd in Austin (TX),30.3094768,-97.7407154,1,78756,OK
55,"5701 Johnny Morris Rd, Austin, TX 78724, USA",5701 Johnny Morris Rd in Austin (TX),30.2919247,-97.6532215,1,78724,OK
56,"Brodie Ln, Texas, USA",Brodie Ln & Green Emerald Terrace in Austin (TX),30.1902458,-97.8454709,10,,OK
57,"Sandshof Dr & Loyola Ln, Austin, TX 78724, USA",Loyola Ln And Sandshof Dr in Austin (TX),30.2989395,-97.6456121,1,78724,OK
58,"Barton Creek Greenbelt, 3755 S Capital of Texas Hwy B, Austin, TX 78704, USA",3755 B S Cap Texas Hwy in Austin (TX),30.24716699999999,-97.8126892,1,78704,OK
59,"N Lamar Blvd & W Rundberg Ln, Austin, TX 78753, USA",Rundberg And N Lamar in Austin (TX),30.363062,-97.6970274,1,78753,OK
60,"14605 FM 973 N, Manor, TX 78653, United States",Hwy 290 And Fm 973 in Manor (TX),30.374301,-97.529476,1,78653,OK
61,"6207 Dorchester Dr, Austin, TX 78723, USA",6207 Dorchester Dr in Austin (TX),30.3136764,-97.6854836,1,78723,OK
62,"5801 Signal Point, Austin, TX 78724, USA",5801 Signal Point Blvd in Austin (TX),30.2892848,-97.644565,1,78724,OK
63,"Point N Dr, South Carolina 29676, USA",Point N Dr & Arctic Ct in Austin (TX),34.8440466,-82.9053347,3,29676,OK
64,"1156 W Cesar Chavez St, Austin, TX 78703, USA",1156 W Cesar Chavez St in Austin (TX),30.269764,-97.7591144,1,78703,OK
65,"E 12th St & Springdale Rd, Austin, TX 78721, USA",E 12Th St And Springdale Rd in Austin (TX),30.2789614,-97.6870409,1,78721,OK
66,"1006 Banister Ln, Austin, TX 78704, USA",1006 Banister Ln in Austin (TX),30.2298916,-97.774716,1,78704,OK
67,"2500 Chaparral Trail, Austin, TX 78744, USA",2500 Chaparral Trail in Austin (TX),30.1962624,-97.7486941,1,78744,OK
68,"1515 Wickersham Ln, Austin, TX 78741, USA",1515 Wickersham Ln in Austin (TX),30.2349921,-97.7182435,1,78741,OK
69,"9909 N Lamar Blvd, Austin, TX 78753, USA",9909 North Lamar in Austin (TX),30.3692184,-97.6929259,1,78753,OK
70,"5812 Malarkey Rd, Del Valle, TX 78617, USA",5812 Malarkey Rd in Del Valle (TX),30.1694471,-97.6205083,1,78617,OK
71,"11425 Ptarmigan Dr, Austin, TX 78758, USA",11425 Ptarmigan Dr in Austin (TX),30.3926858,-97.7036349,1,78758,OK
72,"Ferguson Ln, Texas, USA",Ferguson Lane And Brown Street in Austin (TX),30.3420603,-97.66349149999999,1,,OK
73,"Convict Hill Rd, Austin, TX, USA",Convict Hill Rd & Poncha Pass in Austin (TX),30.2204942,-97.8578223,2,,OK
74,"Cumberland Rd & S Congress Ave, Austin, TX 78704, USA",Cumberland Rd And Congress Ave in Austin (TX),30.2355134,-97.7563802,1,78704,OK
75,"9100 FM812, Austin, TX 78719, USA",9100 Fm 812 Road in Travis (TX),30.1620595,-97.68703099999999,1,78719,OK
76,"5106 Village Square Dr, Austin, TX 78744, USA",5106 Village Square in Austin (TX),30.1886755,-97.7430555,1,78744,OK
77,"1807 N Woodbine Rd, St Joseph, MO 64506, USA",Fairway St & Club Way Dr in Austin (TX),39.784024,-94.7963089,1,64506,OK
78,"5407 Viewpoint Dr, Austin, TX 78744, USA",5407 Viewpoint Drive in Austin (TX),30.2003699,-97.7315071,1,78744,OK
79,"TX-130, Texas, USA",Webberville Rd And Hwy 130 in Austin (TX),30.2264499,-97.621989,1,,OK
80,"Silent Harbor Loop & Hidden Harbor Dr, Texas 78660, USA",Silent Harbor Loop And Hidden Harbor Dr in Pflugerville (TX),30.4437782,-97.5751219,1,78660,OK
81,"8515 S IH 35 Frontage Rd #6225, Austin, TX 78744, USA",8515 S Ih 35 Apt 6225 in Austin (TX),30.171053,-97.78197569999999,1,78744,OK
82,"Blackson Ave & S IH 35 Frontage Rd, Austin, TX 78752, USA",N Ih35 And Blackson St in Austin (TX),30.3354115,-97.7030632,1,78752,OK
83,"6505 Burleson Rd, Austin, TX 78744, USA",6505 Burleson Road in Austin (TX),30.2028876,-97.7147801,1,78744,OK
84,"414 Thompson Ln, Austin, TX 78742, USA",414 Thompson Lane in Austin (TX),30.2409822,-97.6826241,1,78742,OK
85,"Swiss Dr & Lucerne Dr, Swiss Alpine Village, TX 78617, USA",Lucerne And Swiss Dr in Travis (TX),30.12847829999999,-97.6157719,1,78617,OK
86,"3200 Crownover St, Austin, TX 78725, USA",3200 Crownover Street in Austin (TX),30.2297342,-97.5887844,1,78725,OK
87,"W 9th St & Blanco St, Austin, TX 78703, USA",Blanco Street And 9Th Street in Austin (TX),30.2749441,-97.75569929999999,1,78703,OK
88,"5902 N Hampton Dr, Austin, TX 78723, USA",5902 North Hampton Drive in Austin (TX),30.311251,-97.68561079999999,1,78723,OK
89,"Sebastian Bend & Harris Ridge Blvd, Parkside, TX 78660, USA",Harris Redge Blvd And Sebastian Bend in Pflugerville (TX),30.4200503,-97.6446471,1,78660,OK
90,"14507 Gold Fish Pond Ave, Austin, TX 78728, USA",14507 Gold Fish Pond Ave. in Austin (TX),30.4425076,-97.68232460000002,1,78728,OK
91,"14907 Lucerne Dr, Del Valle, TX 78617, USA",14907 Lucerne Dr in Travis (TX),30.127519,-97.613872,1,78617,OK
92,"11906 Bronco Cir, Buda, TX 78610, USA",11906 Bronco Circle in Austin (TX),30.06294,-97.704257,1,78610,OK
93,"5708 Elk Crossing, Austin, TX 78724, USA",5708 Elk Crossing in Austin (TX),30.2820342,-97.62855809999999,1,78724,OK
94,"5315 Ed Bluestein Blvd, Austin, TX 78723, USA",5315 Ed Bluestein Blvd in Austin (TX),30.29183299999999,-97.66242729999999,1,78723,OK
95,"10900 Research Blvd, Austin, TX 78759, USA",Braker Ln And Hwy 183 in Austin (TX),30.401952,-97.746882,1,78759,OK
96,"1120 Brookswood Ave, Austin, TX 78721, USA",1120 Brookswood Ave in Austin (TX),30.2652495,-97.6895545,1,78721,OK
97,"Shoal Creek Blvd & W Anderson Ln, Austin, TX 78757, USA",West Anderson Lane And Shoal Creek Blvd in Austin (TX),30.3609725,-97.74088309999999,1,78757,OK
98,"3100 Collins Creek Dr, Austin, TX 78741, USA",3100 Collins Creek Dr in Austin (TX),30.2225423,-97.7325785,1,78741,OK
99,"1105 E Cesar Chavez St, Austin, TX 78702, USA",1105 E Cesar Chavez St in Austin (TX),30.2599057,-97.7334802,1,78702,OK
100,"13005 Heinemann Dr, Austin, TX 78727, USA",13005 Heinemann Dr in Austin (TX),30.44091139999999,-97.74412749999999,1,78727,OK
101,"7007 Mt Carrell Dr, Austin, TX 78745, USA",7007 Mount Carrell Dr in Austin (TX),30.196428,-97.7965002,1,78745,OK
102,"10203 Doc Holliday Trail, Austin, TX 78753, USA",10203 Doc Holiday Trl in Austin (TX),30.36760529999999,-97.685738,1,78753,OK
103,"2300 Devonshire Dr, Austin, TX 78723, USA",2300 Devonshire Dr in Austin (TX),30.3126094,-97.68382989999999,1,78723,OK
104,"N Lamar Blvd & W Rundberg Ln, Austin, TX 78753, USA",West Rundberg Lane And North Lamar Boulevard in Austin (TX),30.363062,-97.6970274,1,78753,OK
105,"5801 Interregional Hwy, Austin, TX 78723, USA",5801 Interregional Hwy in Austin (TX),30.3186453,-97.70669079999999,1,78723,OK
106,"Roseborough Dr & Running Water Dr, Austin, TX 78747, USA",Roseborough Dr And Running Water in Austin (TX),30.159958,-97.7408942,1,78747,OK
107,"Little Pebble Dr, Austin, TX 78758, USA",Little Pebble Dr And Metric in Austin (TX),30.38198989999999,-97.7110987,1,78758,OK
108,"Bluff Springs Rd & E William Cannon Dr, Austin, TX 78744, USA",Bluff Springs And East William Cannon in Austin (TX),30.1892393,-97.76785199999999,1,78744,OK
109,"6403 Johnny Morris Rd, Austin, TX 78724, USA",6403 Johnny Morris Rd in Austin (TX),30.29694,-97.648866,1,78724,OK
110,"6620 Deatonhill Dr, Austin, TX 78745, USA",6620 Deatonhill Dr in Austin (TX),30.2109111,-97.815184,1,78745,OK
111,"2753 Citation Dr, Del Valle, TX 78617, USA",2753 Citation Drive in Del Valle (TX),30.211774,-97.52652499999999,1,78617,OK
112,"9807 Middle Fiskville Rd, Austin, TX 78753, USA",9807 Middle Fiskville Rd in Austin (TX),30.360991,-97.68301,1,78753,OK
113,"Peaceful Hill Ln, Austin, TX 78748, USA",Peaceful Hill Ln in Austin (TX),30.1793105,-97.7894007,1,78748,OK
114,"189 Jacobson Rd, Del Valle, TX 78617, USA",189 Jacobson Rd in Del Valle (TX),30.1152057,-97.5906151,1,78617,OK
115,"W 45th St & Guadalupe St, Austin, TX 78705, USA",45Th St And Guadalupe St in Austin (TX),30.3108416,-97.7329807,1,78705,OK
116,"2808 Palomino Trail, Austin, TX 78744, USA",2808 Palomino Trl in Austin (TX),30.2104761,-97.69190809999999,1,78744,OK
117,"1354 Old Lockhart Rd, Buda, TX 78610, USA",1354 Old Lockhart Hwy in Travis (TX),30.0705489,-97.71846380000001,1,78610,OK
118,"4511 E Hwy 71, Del Valle, TX 78617, USA",4511 E Hwy 71 in Del Valle (TX),30.1886491,-97.6114118,1,78617,OK
119,"Wickersham Ln & Cromwell Cir, Austin, TX 78741, USA",Wickersham Ln And Cromwell Cir in Austin (TX),30.2305577,-97.72109840000002,1,78741,OK
120,"1900 Onion Creek Pkwy, Austin, TX 78748, USA",1900 Onion Creek Parkway in Austin (TX),30.1386527,-97.80005969999999,1,78748,OK
121,"7201 Levander Loop, Austin, TX 78702, USA",7201 Levander Loop in Austin (TX),30.2527847,-97.6904186,1,78702,OK
122,"Springdale Rd & Airport Blvd, Austin, TX 78702, USA",Springdale Rd And Airport Blvd in Austin (TX),30.2655736,-97.6955164,1,78702,OK
123,"Johnny Morris Rd, Texas 78724, USA",Johnny Morris Rd & Breezy Hill Dr in Austin (TX),30.3082025,-97.64302819999999,2,78724,OK
124,"13401 Metric Blvd, Austin, TX 78727, USA",13401 Metric Blvd in Austin (TX),30.4229095,-97.6794455,1,78727,OK
125,"E Rundberg Ln & S IH 35 Frontage Rd, Austin, TX 78753, USA",Rundberg And Ih 35 in Austin (TX),30.3584936,-97.68856199999999,1,78753,OK
126,"15208 Chamberlain Ct, Austin, TX 78724, USA",15208 Chamberlain Ct in Austin (TX),30.2527384,-97.5770663,1,78724,OK
127,"Teri Rd & Copperbend Blvd, Austin, TX 78744, USA",Teri And Copperbend in Austin (TX),30.1955472,-97.7411229,1,78744,OK
128,"1960 N Main St, Walnut Creek, CA 94596, USA",Walnut Ave & Graham St in Austin (TX),37.9060819,-122.0634591,1,94596,OK
129,"N Lamar Blvd & W Rundberg Ln, Austin, TX 78753, USA",N Lamar/Rundberg in Austin (TX),30.363062,-97.6970274,1,78753,OK
130,"11901 N Mopac Expy, Austin, TX 78759, USA",11901 North Mopac in Austin (TX),30.4068959,-97.7187151,1,78759,OK
131,"Parker Ln & E Riverside Dr, Austin, TX 78741, USA",Riverside And  Parker Ln in Austin (TX),30.2432146,-97.7292123,1,78741,OK
132,"Chestnut Ave & Rosewood Ave, Austin, TX 78702, USA",Rosewood Ave And Chestnut Ave in Austin (TX),30.2703254,-97.715138,1,78702,OK
133,"4900 Goldbridge Dr, Austin, TX 78745, USA",4900 Goldbridge Dr in Austin (TX),30.2014462,-97.8253972,1,78745,OK
134,"Mountain Quail Rd, Austin, TX 78758, USA",Mountain Quail Rd & Thornridge Rd in Austin (TX),30.3736283,-97.7078842,7,78758,OK
135,"1601 E Slaughter Ln, Austin, TX 78747, USA",1601 E Slaughter Ln in Austin (TX),30.1487835,-97.7694089,1,78747,OK
136,"6900 Burleson Manor Rd, Manor, TX 78653, USA",6900 Block Of Burleson Manor Rd in Travis (TX),30.2532514,-97.53232949999999,1,78653,OK
137,"5301 E Stassney Ln, Austin, TX 78744, USA",5301 Stassney Ln in Austin (TX),30.192417,-97.7383177,1,78744,OK
138,"Piland Triangle, Thoroughbred Estates, TX 78617, USA",812 Hwy And Piland Triangle in Del Valle (TX),30.1291992,-97.64111899999999,2,78617,OK
139,"Manchaca Rd & Redwater Dr, Texas 78748, USA",Redwater Dr And Manchaca Rd in Austin (TX),30.1679972,-97.8262688,1,78748,OK
140,"E Stassney Ln & S Congress Ave, Austin, TX 78745, USA",Stassney And Congress Ave in Austin (TX),30.2048849,-97.7748428,1,78745,OK
141,"1920 E Riverside Dr, Austin, TX 78741, USA",1920 E Riverside Dr in Austin (TX),30.2426661,-97.72789879999999,1,78741,OK
142,"7101 Ed Bluestein Blvd, Austin, TX 78723, USA",7101 Ed Bluestein Blvd in Austin (TX),30.3125953,-97.6616095,1,78723,OK
143,"7201 Levander Loop, Austin, TX 78702, USA",7201 Levander Loop in Austin (TX),30.2527847,-97.6904186,1,78702,OK
144,"1016 W Stassney Ln, Austin, TX 78745, USA",1016 W Stassney Ln in Austin (TX),30.211456,-97.786492,1,78745,OK
145,"Schmidt Ln & Anderson Rd, Texas 78653, USA",Schmidt Ln And Anderson Rd in Manor (TX),30.3996408,-97.5244934,1,78653,OK
146,"W 38th St & Guadalupe St, Austin, TX 78705, USA",38Th St And Guadalupe St in Austin (TX),30.3027389,-97.73817849999999,1,78705,OK
147,"9200 N Plaza, Austin, TX 78753, USA",9200 North Plaza in Austin (TX),30.3544049,-97.6860561,1,78753,OK
148,"2204 Fair Oaks Dr, Austin, TX 78745, USA",2204 Fair Oaks Dr in Austin (TX),30.22124,-97.7981566,1,78745,OK
149,,1906 Valley Hill Cir #A in Austin (TX),,,0,,REQUEST_DENIED
150,"20706 Postoak Pkwy, Manor, TX 78653, USA",20706 Postoak Parkway in Manor (TX),30.277914,-97.48975200000001,1,78653,OK
151,"12034 Research Blvd, Austin, TX 78759, USA",12034 Research Blvd in Austin (TX),30.42535759999999,-97.7529038,1,78759,OK
152,"7619 N Interstate Hwy 35 North, Austin, TX 78752, USA",Hwy 183 And Manor in Austin (TX),30.3369319,-97.6996422,1,78752,OK
153,"1515 Wickersham Ln, Austin, TX 78741, USA",1515 Wickersham Ln in Austin (TX),30.2349921,-97.7182435,1,78741,OK
154,"2900 N Farm to Market Rd 973, Austin, TX 78725, USA",2900 N Farm To Market Road 973 in Austin (TX),30.24192129999999,-97.6219745,1,78725,OK
155,"12166 Metric Blvd, Austin, TX 78758, USA",12166 Metric Blvd in Austin (TX),30.4069492,-97.6994813,1,78758,OK
156,"Bluff Springs Rd & Nelms Dr, Austin, TX 78744, USA",Bluff Springs Rd And Nelms Dr in Austin (TX),30.1927864,-97.7651502,1,78744,OK
157,"14400 Harris Ridge Blvd, Pflugerville, TX 78660, USA",14400 Harris Ridge Blvd in Pflugerville (TX),30.42046359999999,-97.6447377,1,78660,OK
158,"14811 Chicadee Cir, Pflugerville, TX 78660, USA",14811 Chicadee in Pflugerville (TX),30.419158,-97.62317739999999,1,78660,OK
159,"1708 Shadowview Dr, Austin, TX 78758, USA",1708 Shadowview Dr in Austin (TX),30.4108399,-97.6901906,1,78758,OK
160,"Teri Rd & Freidrich Ln, Austin, TX 78744, USA",Teri Rd And Freidrich Ln in Austin (TX),30.2032989,-97.75394279999999,1,78744,OK
161,"6315 Ken Caryl Dr, Austin, TX 78747, USA",6315 Ken Caryl Dr in Austin (TX),30.1578897,-97.7431556,1,78747,OK
162,"Boulder Ln & N FM 620, Austin, TX 78726, USA",Fm 620 And Boulder Ln in Austin (TX),30.4288358,-97.8426734,1,78726,OK
163,"1295 S Capital of Texas Hwy, Austin, TX 78746, USA",4010 Hwy 1327  Fire Station in Austin (TX),30.2793974,-97.81992679999999,2,78746,OK
164,"9323 Manchaca Rd, Austin, TX 78748, USA",9323 Manchaca Rd in Austin (TX),30.1788196,-97.82014579999999,1,78748,OK
165,"1803 Broadmoor Dr, Austin, TX 78723, USA",1803 Broadmoor Dr in Austin (TX),30.3053087,-97.69604299999999,1,78723,OK
166,"Anken Dr & S Pleasant Valley Rd, Austin, TX 78741, USA",S Pleasant Valley Rd And Anken Dr in Austin (TX),30.2296634,-97.72629909999999,1,78741,OK
167,"7100 Crystalbrook Dr, Austin, TX 78724, USA",7100 Crystal Brook in Austin (TX),30.30784,-97.6529248,1,78724,OK
168,"1620 E Riverside Dr, Austin, TX 78741, USA",1620 E Riverside Dr in Austin (TX),30.2452206,-97.7301827,1,78741,OK
169,"Pearce Ln & Los Cielos Blvd, Austin, TX 78617, USA",Pearce Ln And Los Cielos Blvd in Del Valle (TX),30.1694167,-97.6231335,1,78617,OK
170,"Cliffbrook Dr, Austin, TX 78747, USA",1625 And Cliff Brook in Austin (TX),30.1047163,-97.7188997,1,78747,OK
171,"7201 Levander Loop, Austin, TX 78702, USA",7201 Levander Loop in Austin (TX),30.2527847,-97.6904186,1,78702,OK
172,"Ulysses S Grant St, Texas 78653, USA",18617 Ulysses S Grant in Travis (TX),30.3557933,-97.5238301,1,78653,OK
173,"Mansfield Dam, Austin, TX 78734, USA",4370 Mansfield Dam in Travis (TX),30.3918843,-97.9073722,2,78734,OK
174,"1822 W Braker Ln, Austin, TX 78758, USA",1822 W Braker Ln in Austin (TX),30.3920447,-97.70577689999999,1,78758,OK
175,"Santa Rita St & Matamoros St, Austin, TX 78702, USA",Matamoros St And Santa Rita St in Austin (TX),30.257413,-97.718679,1,78702,OK
176,"9801 Decker Lake Rd, Austin, TX 78724, USA",9801 Decker Lake Rd in Austin (TX),30.2823416,-97.6189217,1,78724,OK
177,"10801 Old Manchaca Rd, Austin, TX 78748, USA",10801 Old Manchaca in Austin (TX),30.1625936,-97.8287852,1,78748,OK
178,"1154 Nickols Ave, Austin, TX 78721, USA",1154 Nickols Ave. in Austin (TX),30.2766689,-97.68501719999999,1,78721,OK
179,"14631 Branding Iron Pass, Austin, TX 78734, USA",14631 Branding Iron Pass in Travis (TX),30.3732947,-97.9317288,1,78734,OK
180,"5000 Coffee Cup Cove, Austin, TX 78744, USA",5000 Coffee Cup Cove in Austin (TX),30.1966815,-97.7416066,1,78744,OK
181,"6000 US-290, Austin, TX 78735, USA",6000 E Us 290 Hwy in Austin (TX),30.2363559,-97.85159560000001,1,78735,OK
182,"6101 Airport Blvd, Austin, TX 78752, USA",6101 Airport Blvd in Austin (TX),30.32764299999999,-97.7139909,1,78752,OK
183,"Hokanson Rd & Doyle Overton Rd, Rio Vista Ranch, TX 78617, USA",Doyle Overton Rd And Hokanson Rd in Travis (TX),30.0910289,-97.62721700000002,1,78617,OK
184,"Galewood Dr & Colony Creek Dr, Austin, TX 78758, USA",Colony Creek And Galewood in Austin (TX),30.3687916,-97.7141654,1,78758,OK
185,"14607 Highsmith St, Austin, TX 78725, USA",14607 Highsmith St in Travis (TX),30.2371351,-97.58556630000001,1,78725,OK
186,"11603 Hidden Quail Dr, Austin, TX 78758, USA",11603 Hidden Quail in Austin (TX),30.3918862,-97.6999343,1,78758,OK
187,"Bolm Rd, Austin, TX, USA",Bolm Rd & Gardner Rd in Austin (TX),30.2574701,-97.68886099999999,2,,OK
188,"E 4th St & Pedernales St, Austin, TX 78702, USA",Pedernales And E 4Th St in Austin (TX),30.25704,-97.71550409999999,1,78702,OK
189,"1806 Somerset Dr, Round Rock, TX 78681, USA",1806 Somerset Dr in Round Rock (TX),30.5220764,-97.70287139999999,1,78681,OK
190,"12201 Von Quintus Rd, Austin, TX 78719, USA",12201 Von Quintus Road in Austin (TX),30.1048407,-97.6733599,1,78719,OK
191,"E Cesar Chavez St & S IH 35 Frontage Rd, Austin, TX 78701, USA",Cesar Chavez And N Ih 35 in Austin (TX),30.2612203,-97.7367715,1,78701,OK
192,"14500 Deaf Smith Blvd, Austin, TX 78725, USA",14500 Deaf Smith in Travis (TX),30.233564,-97.5899701,1,78725,OK
193,"7201 Levander Loop, Austin, TX 78702, USA",7201 Levander Loop in Austin (TX),30.2527847,-97.6904186,1,78702,OK
194,"S Pleasant Valley Rd & E Riverside Dr, Austin, TX 78741, USA",Riverside And Pleasant Valley in Austin (TX),30.234143,-97.7228689,2,78741,OK
195,"4501 E Ben White Blvd, Austin, TX 78741, USA",4501 East Ben White Boulevard in Austin (TX),30.214455,-97.73432199999999,1,78741,OK
196,"Villa Park Dr & Black Oak St, Jollyville, TX 78729, USA",Black Oak And Villa Park in Austin (TX),30.4577765,-97.7703137,1,78729,OK
197,"5006 Heflin Ln, Austin, TX 78721, USA",5006 Heflin Lane in Austin (TX),30.284191,-97.6789537,1,78721,OK
198,"Crowley Trail & Sinton Ln, Jollyville, TX 78729, USA",Sinton And Crowley in Austin (TX),30.4427278,-97.7471166,1,78729,OK
199,"Crown Ridge Path & Crown Ridge Rd, Austin, TX 78753, USA",Crown Ridge Rd And Crown Ridge Path in Austin (TX),30.3577082,-97.6813008,1,78753,OK
200,"E Riverside Dr & S Hwy 183, Austin, TX 78744, USA",Hwy 183 And E Riverside Dr in Austin (TX),30.2176569,-97.68343089999999,1,78744,OK
201,"Burnet Rd, Austin, TX, USA",Burnet Rd & W Anderson Ln in Austin (TX),30.3585956,-97.7301715,8,,OK
202,"Lareina Dr & Garnett St, Austin, TX 78745, USA",Lareina St And Garnett St in Austin (TX),30.21733,-97.7710634,1,78745,OK
203,"9601 Middle Fiskville Rd, Austin, TX 78753, USA",9601 Middle Fiskville Road in Austin (TX),30.3591384,-97.684283,1,78753,OK
204,"E 32nd St & Hampton Rd, Austin, TX 78705, USA",32Nd St And Hampton Rd in Austin (TX),30.2915582,-97.7281682,1,78705,OK
205,"E 2nd St & Comal St, Austin, TX 78702, USA",East 2Nd And Comal in Austin (TX),30.2594221,-97.72824899999999,1,78702,OK
206,"194 Mc Dowell Rd, Del Valle, TX 78617, USA",194 Mcdowell Rd in Bastrop (TX),30.096152,-97.582781,1,78617,OK
207,"Parliament Dr & Garden View Dr, Austin, TX 78724, USA",Garden View And Parliament in Austin (TX),30.2873431,-97.6595861,1,78724,OK
208,"Decker Lake Rd, Texas, USA",Decker Lake Rd & Blue Bluff Rd in Austin (TX),30.2725619,-97.593729,2,,OK
209,"Grove Blvd & Fairway St, Austin, TX 78741, USA",Fairway And Grove Blvd in Austin (TX),30.2301137,-97.7063373,2,78741,OK
210,"6934 E Ben White Blvd, Austin, TX 78741, USA",Ben White & Ih 35 in Austin (TX),30.2167075,-97.7030252,1,78741,OK
211,"1303 Corona Dr, Austin, TX 78723, USA",1303 Corona Drive in Austin (TX),30.3115557,-97.70325319999999,1,78723,OK
212,"Austin, TX, USA",3315 Maccauley Lane in Austin (TX),30.267153,-97.7430608,1,,OK
213,"N Pleasant Valley Rd & E Cesar Chavez St, Austin, TX 78702, USA",Cesar Chavez And Pleasant Valley in Austin (TX),30.2529803,-97.71281189999999,1,78702,OK
214,"5033-A US Hwy 290 W, Suite 100, Austin, TX 78735, United States",Brodie Lane And West Us Highway 290 in Austin (TX),30.2338737,-97.8237102,1,78735,OK
215,"13706 Lazyridge Dr, Pflugerville, TX 78660, USA",13706 Lazyridge Dr in Travis (TX),30.405937,-97.632933,1,78660,OK
216,"14504 Cameron Rd, Manor, TX 78653, USA",14504 Cameron Rd in Travis (TX),30.39739299999999,-97.59142399999999,1,78653,OK
217,"Round Mountain, Lakeway, TX 78734, USA",16672 Round Mountain in Travis (TX),30.37038029999999,-97.9579242,1,78734,OK
218,"7201 Ellington Cir, Austin, TX 78724, USA",7201 Ellington Circle in Austin (TX),30.3061994,-97.6440353,1,78724,OK
219,"9715 Ochiltree Dr, Austin, TX 78753, USA",9715 Ochiltree Dr in Austin (TX),30.3596294,-97.6798017,1,78753,OK
220,"Applegate Dr E & Mcmillian Dr, Austin, TX 78753, USA",Mcmillian Dr And Applegate Dr E in Austin (TX),30.3702395,-97.6841762,1,78753,OK
221,"15208 Chamberlain Ct, Austin, TX 78724, USA",15208 Chamberlain Ct in Austin (TX),30.2527384,-97.5770663,1,78724,OK
222,"Bolm Rd & Shady Ln, Austin, TX 78721, USA",Bolm And Shady Lane in Austin (TX),30.259782,-97.6933244,1,78721,OK
223,,8220 Hwy 71 West #315 in Austin (TX),,,0,,REQUEST_DENIED
224,"2700 Citation Dr, Del Valle, TX 78617, USA",2700 Citations Dr in Austin (TX),30.211016,-97.51853799999999,1,78617,OK
225,"Bull Creek District Park, 6701 Lakewood Dr, Austin, TX 78731, USA",Lakewood Dr /Bull Creek in Austin (TX),30.3686707,-97.7844607,1,78731,OK
226,"Rutland, VT 05701, USA",Rutland & Merns Meadows in Austin (TX),43.6106237,-72.9726065,1,05701,OK
227,"6620 Blue Bluff Rd, Austin, TX 78724, USA",6620 Blue Bluff Rd in Austin (TX),30.2814032,-97.6096194,1,78724,OK
228,"8900 Manchaca Rd, Austin, TX 78748, USA",8900 Manchaca Rd in Austin (TX),30.1839614,-97.81881399999999,1,78748,OK
229,"1405 E 7th St, Austin, TX 78702, USA",East 7Th Street And Lavendar in Austin (TX),30.2642799,-97.72772839999999,1,78702,OK
230,"E William Cannon Dr & S Pleasant Valley Rd, Austin, TX 78744, USA",Wm Cannon And Pleasant Valley in Austin (TX),30.1799465,-97.7473728,1,78744,OK
231,"E Riverside Dr & S Hwy 183, Austin, TX 78744, USA",Hwy 183 And E Riverside Dr in Austin (TX),30.2176569,-97.68343089999999,1,78744,OK
232,"412 Blue Valley Dr, Austin, TX 78748, USA",412 Blue Valley Dr in Austin (TX),30.1817598,-97.78959900000001,1,78748,OK
233,"W Slaughter Ln & Swansons Ranch Rd, Austin, TX 78748, USA",Slaughter And Swansons Ranch in Austin (TX),30.1737623,-97.8161456,1,78748,OK
234,"Shively Ln & S Hwy 183, Texas 78719, USA",S Hwy 183 And Shively Lane in Austin (TX),30.1156999,-97.69512089999999,1,78719,OK
235,,810 E Slaughter #9108 in Austin (TX),,,0,,REQUEST_DENIED
236,"Baythorne & Ridgewell Rd, Austin, TX 78747, USA",Baythorne Dr And Ridgewell Rd in Austin (TX),30.1501099,-97.7450509,1,78747,OK
237,"13904 Long Hollow Loop, Leander, TX 78641, USA",13904 Long Hollow in Travis (TX),30.584301,-97.982484,1,78641,OK
238,"TX-71 & Fletcher Ln, Austin, TX 78735, USA",Fletcher Ln And Tx-71 in Austin (TX),30.24709949999999,-97.8885729,1,78735,OK
239,"10606 Hard Rock Rd, Austin, TX 78750, USA",10606 Hard Rock Rd in Austin (TX),30.4520463,-97.80745859999999,1,78750,OK
240,"Comal St & Nash Hernandez Senior Rd, Austin, TX 78702, USA",Nash Hernandez Senior Rd And Comal St in Austin (TX),30.25105,-97.7320924,1,78702,OK
241,"9024 Northgate Blvd, Austin, TX 78758, USA",9024 Northgate Boulevard in Austin (TX),30.3700305,-97.71737449999999,1,78758,OK
242,"12806 Lamplight Village Ave, Austin, TX 78727, USA",12806 Lamplight Village in Austin (TX),30.4212258,-97.6938801,1,78727,OK
243,"11501 Georgia Coleman Bend, Austin, TX 78748, USA",11501 Georgia Coleman Bnd in Austin (TX),30.1548213,-97.84358429999999,1,78748,OK
244,"Hansford County, TX, USA",Hansford & Rundberg in Austin (TX),36.31837489999999,-101.4339148,1,,OK
245,"1305 Southport Dr, Austin, TX 78704, USA",1305 Southport Drive in Austin (TX),30.2326576,-97.7758545,1,78704,OK
246,"3504 Taylor Falls Dr, Pflugerville, TX 78660, USA",3504 Taylor Falls Drive in Travis (TX),30.4563816,-97.5717213,1,78660,OK
247,"1516 Nash Hernandez Senior Rd, Austin, TX 78702, USA",1516 Nash Hernandez in Austin (TX),30.2513338,-97.7325134,1,78702,OK
248,"2800 Metcalfe Rd, Austin, TX 78741, USA",2800 Metcalfe Road in Austin (TX),30.2242083,-97.7379358,1,78741,OK
249,"16901 Hayride Cir, Del Valle, TX 78617, USA",16901 Hayride Circle in Travis (TX),30.14113249999999,-97.5758163,1,78617,OK
250,"505 W Anderson Ln, Austin, TX 78752, USA",505 W Anderson Ln in Austin (TX),30.3449055,-97.7092641,1,78752,OK
251,"13616 Briarcreek Loop, Manor, TX 78653, USA",13616 Briar Creek Loop in Travis (TX),30.3147499,-97.5300762,1,78653,OK
252,"1907 Mearns Meadow/Little Pebble, Austin, TX 78758, USA",Little Pebble And Mearns in Austin (TX),30.38291,-97.7111,1,78758,OK
253,"3427 Parker Ln, Austin, TX 78741, USA",3427 Parker Lane in Austin (TX),30.2199638,-97.7419037,1,78741,OK
254,"E 12th St & Webberville Rd, Austin, TX 78721, USA",Webberville Road And 12Th Street in Austin (TX),30.2780868,-97.6850527,1,78721,OK
255,"1408 Frontier Valley Dr, Austin, TX 78741, USA",1408 Frontier Valley in Austin (TX),30.2262484,-97.69382499999999,1,78741,OK
256,"6910 E William Cannon Dr, Austin, TX 78744, USA",6910 E William Cannon Dr in Austin (TX),30.1654102,-97.7290982,1,78744,OK
257,"9010 Galewood Dr, Austin, TX 78758, USA",9010 Galewood Drive in Austin (TX),30.3678934,-97.715003,1,78758,OK
258,"7213 Inspiration Dr, Austin, TX 78724, USA",7213 Inspiration Dr. in Austin (TX),30.3102383,-97.6532639,1,78724,OK
259,"Magna Carta Loop & Breeds Hill, Springdale Heights, TX 78754, USA",Magna Carta Loop And Breeds Hill in Austin (TX),30.3378317,-97.6478368,1,78754,OK
260,"14407 Joy Lee Ln, Manor, TX 78653, USA",14407 Joy Lee Ln Manor Tx 78653 in Manor (TX),30.3675161,-97.5181037,1,78653,OK
261,"7619 N Interstate Hwy 35 North, Austin, TX 78752, USA",Hwy 183 And N Lamar in Austin (TX),30.3369319,-97.6996422,1,78752,OK
262,"12312 Los Indios Trail, Austin, TX 78729, USA",12312 Los Indios Trl in Austin (TX),30.4398294,-97.7671589,1,78729,OK
263,"1430 Frontier Valley Dr #112, Austin, TX 78741, USA",1430 Frontier Valley Drive Unit 112 in Austin (TX),30.227456,-97.692371,1,78741,OK
264,"E 17th St, New York, NY, USA",E 17Th St & Maple Ave in Austin (TX),40.735556,-73.9865926,1,,OK
265,"Springdale Rd & Ledesma Rd, Austin, TX 78721, USA",Ledesma Rd And Springdale Rd in Austin (TX),30.2740168,-97.6901542,1,78721,OK
266,"5301 E Stassney Ln, Austin, TX 78744, USA",5301 Stassney Ln in Austin (TX),30.192417,-97.7383177,1,78744,OK
267,"Leda Ln & Elara Dr, Hornsby Glen, TX 78725, USA",Elara Dr And Leda Ln in Austin (TX),30.2146126,-97.6379398,1,78725,OK
268,"S Congress Ave & E Live Oak St, Austin, TX 78704, USA",Live Oak And S Congress in Austin (TX),30.2420065,-97.7524947,1,78704,OK
269,"500 E Ben White Blvd, Austin, TX 78704, USA",500 E Ben White Blvd in Austin (TX),30.2211803,-97.7563526,1,78704,OK
270,"E Oltorf St & Wickersham Ln, Austin, TX 78741, USA",Wickersham And Oltolf in Austin (TX),30.22561129999999,-97.72435639999999,1,78741,OK
271,"Clawson Rd & Valleyridge Dr, Austin, TX 78704, USA",Clawson And Valley Ridge Dr in Austin (TX),30.2373257,-97.7780512,2,78704,OK
272,"Springdale Rd & Oak Springs Dr, Austin, TX 78721, USA",Oak Springs And Springdale in Austin (TX),30.2735453,-97.690416,1,78721,OK
273,"E Cesar Chavez St & Comal St, Austin, TX 78702, USA",Cesar Chavez And Comal in Austin (TX),30.258518,-97.7286659,1,78702,OK
274,"1203 Springdale Rd, Austin, TX 78721, USA",1203 Springdale Road in Austin (TX),30.27941,-97.6854029,1,78721,OK
275,"FM 969 & Delta Post Dr, Austins' Colony, TX 78724, USA",Delta Post Drive And Fm 969 in Austin (TX),30.2474718,-97.58302119999999,1,78724,OK
276,"11906 Bronco Cir, Buda, TX 78610, USA",11906 Bronco Circle in Austin (TX),30.06294,-97.704257,1,78610,OK
277,"3401 Webberville Rd, Austin, TX 78702, USA",3401 Webberville Rd in Austin (TX),30.2684256,-97.707213,1,78702,OK
278,"Cameron Rd & E Yager Ln, Texas 78653, USA",Cameron Rd And East Yager Ln in Manor (TX),30.3629108,-97.62939999999999,1,78653,OK
279,"Meadow Run & Stoneoak Ln, Austin, TX 78745, USA",Meadow Run And Stoneoak Ln in Austin (TX),30.1987349,-97.79791209999999,1,78745,OK
280,"18208 Flat Head Dr, Manor, TX 78653, USA",18208 Flat Head Dr in Travis (TX),30.3127634,-97.5334611,1,78653,OK
281,"S Lexington St & Old Hwy 20, Manor, TX 78653, USA",Old Hwy 20 And Lexington St in Manor (TX),30.34107029999999,-97.55768499999999,1,78653,OK
282,"US-183 & Techni Center Dr, Austin, TX 78721, USA",Hwy 183 And Techni Center in Austin (TX),30.2760329,-97.6680513,1,78721,OK
283,"Lohman Ford Rd & Post Oak Dr, Travis Hollow, TX 78645, USA",Lohman Ford Rd And Post Oak Dr in Lago Vista (TX),30.4664886,-97.9772733,1,78645,OK
284,"5500 Peppertree Pkwy, Austin, TX 78744, USA",5500 Peppertree Pkwy in Austin (TX),30.1962998,-97.7533629,1,78744,OK
285,"E 12th St & E M. Franklin Ave, Austin, TX 78721, USA",Em Franklin And 12Th Street in Austin (TX),30.2778375,-97.6942357,1,78721,OK
286,"Cherrydale Dr & Cherry Meadow Dr, Austin, TX 78745, USA",Cherry Meadows And Cherrydale Dr in Austin (TX),30.2000779,-97.803654,1,78745,OK
287,"Nelms Dr & Sneed Cove, Austin, TX 78744, USA",Sneed Cove And Nelms Dr in Austin (TX),30.1928031,-97.7642187,1,78744,OK
288,"11300 Doyle Overton Rd, Del Valle, TX 78617, USA",11300 Doyle Overton Rd in Austin (TX),30.080497,-97.63947999999999,1,78617,OK
289,"Loyola Ln, Texas, USA",Loyola Ln & Sandshof Dr in Austin (TX),30.3011411,-97.6500635,10,,OK
290,"Manor, TX 78653, USA",300 East Lane Street in Manor (TX),30.3407629,-97.55694559999999,1,78653,OK
291,"8909 Briardale Dr, Austin, TX 78758, USA",8909 Briardale Drive in Austin (TX),30.3652582,-97.7141546,1,78758,OK
292,"10609 Garbacz Dr, Austin, TX 78748, USA",10609 Garbacz Dr in Austin (TX),30.1602257,-97.8249615,1,78748,OK
293,"1423 Westmoor Dr, Austin, TX 78723, USA",1423 Westmoor Dr in Austin (TX),30.30844699999999,-97.7005387,1,78723,OK
294,"2206 Blue Meadow Dr, Austin, TX 78744, USA",2206 Blue Meadow Drive in Austin (TX),30.1820835,-97.76336889999999,1,78744,OK
295,"13201 Ranch Rd 620 N, Austin, TX 78717, USA",13201 Ranch Rd 620 N in Austin (TX),30.4673291,-97.7953503,1,78717,OK
296,"Hamilton Point Cir, Manor, TX 78653, USA",Hamilton Point Cir & Jaron Dr in Manor (TX),30.3383754,-97.5499914,2,78653,OK
297,"12931 Heyerdahl Dr, Austin, TX 78753, USA",12931 Heyerdahl in Pflugerville (TX),30.4023072,-97.65114469999999,1,78753,OK
298,"Burleson Rd & Montopolis Dr, Austin, TX 78744, USA",Montopolis Drive And Burleson Road in Austin (TX),30.2055131,-97.7165557,1,78744,OK
299,"20032 Moorlynch Ave, Pflugerville, TX 78660, USA",20032 Moorlynch Ave in Travis (TX),30.4712142,-97.56905479999999,1,78660,OK
300,"500 Bastrop Hwy, Austin, TX 78741, USA",500 Bastrop Highway in Austin (TX),30.2366007,-97.68804460000001,1,78741,OK
301,"Middle Fiskville Rd, Austin, TX, USA",Middle Fiskville in Austin (TX),30.32254979999999,-97.7107467,1,,OK
302,"Barton Creek Greenbelt, 3755 S Capital of Texas Hwy B, Austin, TX 78704, USA",Barton Hills Dr And Barton Greenbelt Trail in Austin (TX),30.24716699999999,-97.8126892,2,78704,OK
303,"Long Branch Dr, Long Branch Valley, TX 78736, USA",Long Branch/Whitetail in Austin (TX),30.2404737,-97.9950334,1,78736,OK
304,"4812 Eastdale Dr, Austin, TX 78723, USA",4812 Eastdale Dr in Austin (TX),30.2877216,-97.669923,1,78723,OK
305,"7510 Compass Dr, Austin, TX 78724, USA",7510 Compass Drive in Austin (TX),30.308345,-97.64059789999999,1,78724,OK
306,"5807 Steven Creek Way, Austin, TX 78721, USA",5807 Steven Creek Way in Austin (TX),30.2599866,-97.68536300000001,1,78721,OK
307,"12213 Stoney Meadow Dr, Del Valle, TX 78617, USA",12213 Stoney Meadow Dr in Travis (TX),30.1588022,-97.63703249999999,1,78617,OK
308,"3010 Garden Villa Ln, Austin, TX 78704, USA",3010 Garden Villa Ln in Austin (TX),30.2366726,-97.7691542,1,78704,OK
309,,2425 Ashdale #18 in Austin (TX),,,0,,REQUEST_DENIED
310,"FM1327, Creedmoor, TX, USA",1625 And Fm 1327 in Creedmoor (TX),30.0941464,-97.7431249,1,,OK
311,"1800 Celeste Cir, Austin, TX 78721, USA",1800 Celeste Cir in Austin (TX),30.2842855,-97.6811585,1,78721,OK
312,"11680 Research Blvd, Austin, TX 78759, USA",Us 183 And Duval in Austin (TX),30.4185614,-97.74783599999999,1,78759,OK
313,"5200 E Stassney Ln, Austin, TX 78744, USA",5200 Stassney And Nuckols in Austin (TX),30.1933928,-97.73848749999999,1,78744,OK
314,"12009 Buckingham Gate Rd, Austin, TX 78748, USA",12009 Buckingham Gate Rd in Austin (TX),30.1538605,-97.8520742,1,78748,OK
315,"11906 Broad Leaf Cove, Austin, TX 78750, USA",11906 Broad Leaf Cv in Austin (TX),30.4595435,-97.8211376,1,78750,OK
316,"4404 Quicksilver Blvd, Austin, TX 78744, USA",4404 Quicksilver Dr in Austin (TX),30.1743907,-97.7623618,1,78744,OK
317,"1604 Darjeeling Dr, Pflugerville, TX 78660, USA",1604 Darjeeling in Pflugerville (TX),30.4238657,-97.6360155,1,78660,OK
318,"11900 Stonehollow Dr, Austin, TX 78758, USA",11900 Stonehollow Dr in Austin (TX),30.4010873,-97.707461,1,78758,OK
319,"7201 Levander Loop, Austin, TX 78702, USA",7201 Levander Loop in Austin (TX),30.2527847,-97.6904186,1,78702,OK
320,"1101 Brushy Creek Rd, Cedar Park, TX 78613, USA",1101 Brushy Creek Rd in Cedar Park (TX),30.504437,-97.80258099999999,1,78613,OK
321,"Austin, TX, USA",Caroline And Belfonte in Austin (TX),30.267153,-97.7430608,1,,OK
322,"1430 Briarcliff Blvd, Austin, TX 78723, USA",1430 Briarcliff Blvd in Austin (TX),30.3154981,-97.69485549999999,1,78723,OK
323,"2317 S Pleasant Valley Rd, Austin, TX 78741, USA",2317 S Pleasant Valley Dr in Austin (TX),30.2293751,-97.7259097,1,78741,OK
324,"11602 Prairie Hen Ln, Austin, TX 78758, USA",11602 Prairie Hen in Austin (TX),30.3928679,-97.7020656,1,78758,OK
325,"E Oltorf St & Wickersham Ln, Austin, TX 78741, USA",Wickersham Ln And E Oltorf St in Austin (TX),30.22561129999999,-97.72435639999999,1,78741,OK
326,"7122 Wood Hollow Dr, Austin, TX 78731, USA",7122 Wood Hollow Dr in Austin (TX),30.3549751,-97.7523042,1,78731,OK
327,"11512 Travis St, Jonestown, TX 78645, USA",11512 Travis St in Jonestown (TX),30.5004951,-97.91215779999999,1,78645,OK
328,"2416 Burleson Ct, Austin, TX 78741, USA",2416 Burleson Court in Austin (TX),30.2292012,-97.7349442,1,78741,OK
329,"7201 Levander Loop, Austin, TX 78702, USA",7201 Levander Loop in Austin (TX),30.2527847,-97.6904186,1,78702,OK
330,"E Riverside Dr, Austin, TX, USA",E Riverside Dr & S Pleasant Valley Rd in Austin (TX),30.2313978,-97.7166548,1,,OK
331,"Krebs Ln, Austin, TX 78704, USA",Krebs Ln & Fort Mcgruder in Austin (TX),30.2265362,-97.7657625,8,78704,OK
332,"4906 Imperial Dr N, Austin, TX 78724, USA",4906 N Imperial Dr in Austin (TX),30.267665,-97.62500600000001,1,78724,OK
333,"1304 S Webberwood Way, Webberville, TX 78621, USA",1304 South Webberwood Way in Travis (TX),30.2230934,-97.4888076,1,78621,OK
334,"11420 Rock Rose Ave, Austin, TX 78758, USA",11420 Rock Rose Ave in Austin (TX),30.4008303,-97.72316110000001,1,78758,OK
335,"W 23rd St & San Gabriel St, Austin, TX 78705, USA",W. 23Rd St And San Gabriel St in Austin (TX),30.2871751,-97.74793199999999,1,78705,OK
336,"Bennett Ave, New York, NY, USA",Bennett Ave & E 52Nd St in Austin (TX),40.8548466,-73.9345172,10,,OK
337,"7213 Inspiration Dr, Austin, TX 78724, USA",7213 Inspiration Dr. in Austin (TX),30.3102383,-97.6532639,1,78724,OK
338,"4100 Westbank Dr, Austin, TX 78746, USA",Bell Spring And West Lake Shore in Austin (TX),30.2757059,-97.8137898,1,78746,OK
339,"Weiss Ln, Irving, TX 75039, USA",Weiss Ln & Jesse Bohls Rd in Pflugerville (TX),32.8626554,-96.92667209999999,10,75039,OK
340,"2404 Dovehill Dr, Austin, TX 78744, USA",2404 Dovehill Dr in Austin (TX),30.190476,-97.7548485,1,78744,OK
341,"Riverside Dr, New York, NY, USA",Riverside Dr & Frontier Valley in Austin (TX),40.815718,-73.9624664,1,,OK
342,"2504 Huntwick Dr, Austin, TX 78741, USA",2504 Huntwick Dr in Austin (TX),30.223966,-97.72762469999999,1,78741,OK
343,"21st St & Delmar Ave, Granite City, IL 62040, USA",Delmar Ave & Duval St in Austin (TX),38.703511,-90.14832,1,62040,OK
344,"Harris Branch, Austin, TX, USA",Giles And Harris Branch in Austin (TX),30.35086249999999,-97.6127772,1,,OK
345,"73 San Marcos St, Austin, TX 78702, USA",73 San Marcos St in Austin (TX),30.2579923,-97.7350561,1,78702,OK
346,"Steeds Crossing, Texas 78660, USA",Steed'S Crossing in Austin (TX),30.4920604,-97.5774929,1,78660,OK
347,"907 W Slaughter Ln, Austin, TX 78748, USA",907 W Slaughter Ln in Austin (TX),30.1587351,-97.80824439999999,2,78748,OK
348,"7706 Northcross Dr, Austin, TX 78757, USA",7706 Northcross Blvd in Austin (TX),30.354013,-97.7360291,1,78757,OK
349,"FM973 & Pearce Ln, Texas 78617, USA",Pearce Ln And Hwy 973 in Austin (TX),30.1805802,-97.6466179,1,78617,OK
350,"14013 Golden Flax Trail, Pflugerville, TX 78660, USA",14013 Golden Flax in Travis (TX),30.4221188,-97.6581807,1,78660,OK
351,"10719 Doyle Overton Rd, Del Valle, TX 78617, USA",10719 Doyle Overton Rd in Del Valle (TX),30.0904308,-97.62713869999999,1,78617,OK
352,"1503 Demaret St, Pflugerville, TX 78660, USA",1503 Demaret St in Pflugerville (TX),30.4469445,-97.6620381,1,78660,OK
353,"S Pleasant Valley Rd & E Riverside Dr, Austin, TX 78741, USA",Riverside And Pleasant Valley in Austin (TX),30.234143,-97.7228689,2,78741,OK
354,"Bluff Springs Rd & Chateau Village Way, Austin, TX 78744, USA",Bluff Springs And Chateau Villalge Way in Austin (TX),30.1734611,-97.7688124,1,78744,OK
355,"5800 Techni Center Dr, Austin, TX 78721, USA",5800 Techni Center Dr in Austin (TX),30.2797067,-97.6699519,1,78721,OK
356,"E Stassney Ln, Austin, TX, USA",E Stassney Ln & Nuckols Crossing Rd in Austin (TX),30.1939572,-97.7455674,2,,OK
357,"West Ave & W 30th St, Austin, TX 78705, USA",W 30Th/ West Ave in Austin (TX),30.2980878,-97.7449545,1,78705,OK
358,"Burton/Valley Hill Cir., Austin, TX 78741, USA",Valley Hill Cir And Burton in Austin (TX),30.23436,-97.73078,1,78741,OK
359,"18343 Basket Flower Bend, Elgin, TX 78621, USA",18343 Basket Flower Bend in Travis (TX),30.3495582,-97.4281433,1,78621,OK
360,"2206 Blue Meadow Dr, Austin, TX 78744, USA",2206 Blue Meadow Dr in Austin (TX),30.1820835,-97.76336889999999,1,78744,OK
361,"9402 Crownspoint Cir, Austin, TX 78748, USA",9402 Crownspoint in Austin (TX),30.1822917,-97.8291679,1,78748,OK
362,"2451 S Capital of Texas Hwy, Austin, TX 78746, USA",2451 S Captial Texas Hwy in Austin (TX),30.263487,-97.8157147,1,78746,OK
363,"Woodrow Ave & Houston St, Austin, TX 78756, USA",Woodrow Ave And Houston Ave in Austin (TX),30.3263288,-97.734465,1,78756,OK
364,"1525 Grand Ave Pkwy, Pflugerville, TX 78660, USA",1525 Grand Avenue Pkwy in Pflugerville (TX),30.4557219,-97.6571378,1,78660,OK
365,"Canoga Ave & Decker Ln, Texas 78724, USA",Canoga And Decker in Austin (TX),30.2835134,-97.6329183,1,78724,OK
366,"8221 N Interstate Hwy 35, Austin, TX 78753, USA",8221 N Interstate Hwy 35 in Austin (TX),30.34454,-97.695882,1,78753,OK
367,"Redd St, Richmond, VA 23223, USA",Redd St & Jinx Ave in Austin (TX),37.5464015,-77.4191743,10,23223,OK
368,"7100 Bluff Springs Rd, Austin, TX 78744, USA",7100 Bluff Springs Road in Austin (TX),30.1839288,-97.7708737,1,78744,OK
369,"9000 Cattle Chute Crossing, Austin, TX 78717, USA",9000 Cattle Shute Xing in Austin (TX),30.491499,-97.75255639999999,1,78717,OK
370,"1802 Crazyhorse Pass, Austin, TX 78734, USA",1802 Crazy Horse in Travis (TX),30.3752528,-97.931899,1,78734,OK
371,"4434 Frontier Trail, Austin, TX 78745, USA",4434 Frontier Trl in Austin (TX),30.23144,-97.795757,1,78745,OK
372,"10900 Research Blvd, Austin, TX 78759, USA",Braker Ln And Hwy 183 in Austin (TX),30.401952,-97.746882,1,78759,OK
373,"Sheraton Ave, Austin, TX 78745, USA",Sheraton Ave & Old Castle Rd in Austin (TX),30.2134113,-97.7644006,10,78745,OK
374,"4521 West Gate Blvd, Austin, TX 78745, USA",Westgate/S Lamar In A  Parking Lot in Austin (TX),30.231673,-97.80006399999999,1,78745,OK
375,"808 Woodrow Wilson Ray Cir, Bridgeport, TX 76426, USA",Bridgeport Dr & Fairfield Dr in Austin (TX),33.2213409,-97.75936929999999,1,76426,OK
376,"18536 Blue Pond Dr, Pflugerville, TX 78660, USA",18536 Blue Pond Dr in Pflugerville (TX),30.4498461,-97.5656254,1,78660,OK
377,"Lightsey Rd & S 1st St, Austin, TX 78704, USA",S 1St / Lightsey in Austin (TX),30.2324512,-97.7657376,1,78704,OK
378,"10108 Oak Hollow Dr, Austin, TX 78758, USA",10108 Oak Hollow Dr in Austin (TX),30.3773474,-97.7072403,1,78758,OK
379,"501 Sweet Leaf Ln, Pflugerville, TX 78660, USA",501 Sweet Leaf in Pflugerville (TX),30.4227271,-97.6308143,1,78660,OK
380,"8814 Tallwood Dr, Austin, TX 78759, USA",8814 Tallwood Dr in Austin (TX),30.37813689999999,-97.74235259999999,1,78759,OK
381,"Cheyenne Valley Dr & N Heatherwilde Blvd, Pflugerville, TX 78660, USA",Cheyenne Valley Dr And N Heatherwilde Blvd in Travis (TX),30.48919889999999,-97.6102442,1,78660,OK
382,"21506 Ann Showers Dr, Elgin, TX 78621, USA",21506 Ann Showers in Travis (TX),30.278975,-97.477453,1,78621,OK
383,"E Martin Luther King Jr Blvd & Airport Blvd, Austin, TX 78702, USA",Airport Blvd And Mlk Blvd in Austin (TX),30.2825403,-97.70398689999999,1,78702,OK
384,"Summer Cir & Faro Dr, Austin, TX 78741, USA",Summer Cir And Faro Dr in Austin (TX),30.2313225,-97.7124333,1,78741,OK
385,"1604 Ranch Rd 620 S, Lakeway, TX 78734, USA",1604 Ranch Road 620 South in Austin (TX),30.3462137,-97.9652157,1,78734,OK
386,"4106 N Lamar Blvd, Austin, TX 78756, USA",4106 N Lamar Blvd in Austin (TX),30.3094768,-97.7407154,1,78756,OK
387,"5708 W Parmer Ln, Austin, TX 78727, USA",5708 West Parmer Lane in Travis (TX),30.4392056,-97.7358989,1,78727,OK
388,"Manassas Dr & Roehampton Dr, Austin, TX 78745, USA",Manassas Dr And Roehampton Dr in Austin (TX),30.1969868,-97.8165317,1,78745,OK
389,"S Pleasant Valley Rd, Austin, TX, USA",S Pleasant Valley Rd & E Stassney Ln in Austin (TX),30.2067971,-97.74041079999999,1,,OK
390,"7115 Dee Gabriel Collins Rd, Austin, TX 78744, USA",7115 Dee Gabriel Collins Rd in Austin (TX),30.1730763,-97.72095589999999,1,78744,OK
391,"8220 Research Blvd, Austin, TX 78758, USA",8220 Research Blvd in Austin (TX),30.3545076,-97.7155633,1,78758,OK
392,"11900 Jollyville Rd, Austin, TX 78759, USA",Us 183 And Jollyville Rd in Austin (TX),30.4236145,-97.75731329999999,2,78759,OK
393,"1931 E Ben White Blvd, Austin, TX 78741, USA",1931 E Ben White in Austin (TX),30.215416,-97.7449381,1,78741,OK
394,"Izetta Ln, Texas 78744, USA",Izetta Ln & Bonneville Bend in Austin (TX),30.17693539999999,-97.6968571,1,78744,OK
395,"7201 Levander Loop, Austin, TX 78702, USA",7201 Levander Loop in Austin (TX),30.2527847,-97.6904186,1,78702,OK
396,"6900 Colt Ct, Buda, TX 78610, USA",6900 Colt Ct in Mustang Ridge (TX),30.0596776,-97.7200939,1,78610,OK
397,"W Parmer Ln & Metric Blvd, Austin, TX 78758, USA",W Parmer Ln And Metric Blvd in Austin (TX),30.4132017,-97.69067869999999,1,78758,OK
398,"15877 Long Vista Dr, Austin, TX 78728, USA",15877 Long Vista Drive in Austin (TX),30.4601804,-97.6746502,1,78728,OK
399,"Bluff Bend Dr & Newport Ave, Austin, TX 78753, USA",Newport And Bluff Bend in Austin (TX),30.3653776,-97.6782102,2,78753,OK
400,"10206 N Interstate 35 Frontage Rd, Austin, TX 78753, USA",10206 North Interstate 35 Frontage Road in Austin (TX),30.3665875,-97.6833511,1,78753,OK
401,"4604 Knottingwood Ct, Austin, TX 78744, USA",4604 Knottingwood in Austin (TX),30.1720701,-97.7612113,1,78744,OK
402,"15204 Sweet Caddie's Dr, Pflugerville, TX 78660, USA",15204 Sweet Caddies Dr in Travis (TX),30.4410503,-97.65652759999999,1,78660,OK
403,"12609 Lexington St, Manor, TX 78653, USA",12609 Lexington Street in Manor (TX),30.3496619,-97.5555724,1,78653,OK
404,"McNeil Dr & Howard Ln, Texas 78729, USA",Howard Ln And Mcniel Rd in Austin (TX),30.4489807,-97.72561040000001,1,78729,OK
405,"E 12th St & N Pleasant Valley Rd, Austin, TX 78702, USA",Pleasant Valley And 12St in Austin (TX),30.2743992,-97.7159948,1,78702,OK
406,"13304 Thome Valley Dr, Del Valle, TX 78617, USA",13304 Thome Valley in Travis (TX),30.1733997,-97.6134338,1,78617,OK
407,"6908 Branchwood Dr, Austin, TX 78744, USA",6908 Branchwood Dr in Austin (TX),30.1805444,-97.75985730000001,1,78744,OK
408,"1156 W Cesar Chavez St, Austin, TX 78703, USA",1156 W Cesar Chavez St in Austin (TX),30.269764,-97.7591144,1,78703,OK
409,"Berkman Dr & E 51st St, Austin, TX 78723, USA",51St And Berkman Dr in Austin (TX),30.30389749999999,-97.69902689999999,1,78723,OK
410,"1809 Tolstoy Cir, Round Rock, TX 78664, USA",1809 Tolstoy Cir in Travis (TX),30.4716079,-97.6548746,1,78664,OK
411,"5801 Signal Point, Austin, TX 78724, USA",5801 Signal Point Blvd in Austin (TX),30.2892848,-97.644565,1,78724,OK
412,"8405 Old Bee Cave Rd, Austin, TX 78735, USA",8405 Old Bee Caves Road in Austin (TX),30.2504871,-97.8874476,1,78735,OK
413,"10701 S 1st St, Austin, TX 78748, USA",10701 S. 1St Street in Austin (TX),30.1489844,-97.80185469999999,1,78748,OK
414,"5712 Emerald Forest Dr, Austin, TX 78745, USA",5712 Emerald Forest in Austin (TX),30.2092669,-97.78855860000002,1,78745,OK
415,"7112 Hillcroft Dr, Austin, TX 78724, USA",7112 Hillcroft Dr in Austin (TX),30.3038694,-97.6411854,1,78724,OK
416,"Lyons Rd & Tillery St, Austin, TX 78702, USA",Lyons Rd/Tillery St in Austin (TX),30.2624782,-97.70385360000002,1,78702,OK
417,"E Rundberg Ln & Dessau Rd, Austin, TX 78754, USA",Dessau Rd/E Rundberg Ln in Austin (TX),30.3508497,-97.6760214,1,78754,OK
418,"2400 S Lakeshore Blvd, Austin, TX 78741, USA",2400 S Lakeshore Blvd in Austin (TX),30.2432412,-97.7192298,1,78741,OK
419,"E 12th St & Chicon St, Austin, TX 78702, USA",E12Th And Chicon in Austin (TX),30.2737572,-97.719895,1,78702,OK
420,"12221 N Mopac Expy, Austin, TX 78759, USA",12221 North Mopac in Austin (TX),30.4114435,-97.70628219999999,1,78759,OK
421,"4211 S Lamar Blvd, Austin, TX 78704, USA",4211 S Lamar Blvd in Austin (TX),30.2337708,-97.7924086,1,78704,OK
422,"E Stassney Ln, Austin, TX, USA",E Stassney Ln & Tallow Tree Dr in Austin (TX),30.1939572,-97.7455674,2,,OK
423,"9201 Circuit of the Americas Blvd, Austin, TX 78617, USA",Circuit Of The Americas in Travis (TX),30.1345808,-97.6358511,1,78617,OK
424,"7020 Grand Canyon Dr, Austin, TX 78752, USA",7020 Grand Canyon Dr 108 in Austin (TX),30.3263353,-97.69559029999999,1,78752,OK
425,"E Riverside Dr & S Hwy 183, Austin, TX 78744, USA",Hwy 183 And E Riverside Dr in Austin (TX),30.2176569,-97.68343089999999,1,78744,OK
426,"10535 Boyer Blvd, Austin, TX 78758, USA",10535 Boyer Blvd in Austin (TX),30.3844654,-97.70984899999999,1,78758,OK
427,"N Lamar Blvd & W Rundberg Ln, Austin, TX 78753, USA",North Lamar And Rundberg in Austin (TX),30.363062,-97.6970274,1,78753,OK
428,"N Lamar Blvd & Morrow St, Austin, TX 78752, USA",Morrow Street And Norht Lamar Boulevard in Austin (TX),30.3440003,-97.7150441,1,78752,OK
429,"9302 Brents Elm Dr, Austin, TX 78744, USA",9302 Brents Elm Dr in Austin (TX),30.15986999999999,-97.7804905,1,78744,OK
430,"1906 Chestnut Ave, Austin, TX 78722, USA",1906 Chestnut Ave in Austin (TX),30.2810583,-97.7177181,1,78722,OK
431,"1401 E Rundberg Ln, Austin, TX 78753, USA",1401 E Rundberg Ln in Austin (TX),30.3490239,-97.67995839999999,1,78753,OK
432,"A, 8700 Research Blvd, Austin, TX 78757, USA",8700 Research Blvd in Austin (TX),30.3647441,-97.7191588,1,78757,OK
433,"1403 Citation Cir, Del Valle, TX 78617, USA",1403 Citation Cir in Del Valle (TX),30.2231469,-97.5211918,1,78617,OK
434,"E 12th St & Airport Blvd, Austin, TX 78702, USA",12Th And Airport Blvd in Austin (TX),30.2768544,-97.7003386,1,78702,OK
435,"Congress Ave & W 5th St, Austin, TX 78701, USA",Congress Ave And 5Th St in Austin (TX),30.2671174,-97.74313049999999,1,78701,OK
436,"1210 Neans Dr, Austin, TX 78758, USA",1210 Neans Drive in Austin (TX),30.3767461,-97.6999873,1,78758,OK
437,"Covert Park at Mount Bonnell, 3800 Mt Bonnell Rd, Austin, TX 78731, USA",Mt Bonnell Rd And Colorado in Austin (TX),30.3216371,-97.7732331,2,78731,OK
438,"E Yager Ln, Texas, USA",Yager Lane & Parmer Lane in Austin (TX),30.3846009,-97.64499239999999,10,,OK
439,"7325 Gaines Mill Ln, Austin, TX 78745, USA",7325 Gaines Mill in Austin (TX),30.19871079999999,-97.811579,1,78745,OK
440,"Hergotz Ln & Thompson Ln, Austin, TX 78742, USA",Hergotz And Thompson in Austin (TX),30.2458045,-97.6801921,1,78742,OK
441,"Norwood Park Blvd, Austin, TX, USA",Norwood Park Blvd in Austin (TX),30.3400359,-97.69340919999999,1,,OK
442,"13800 Long Meadow Dr, Pflugerville, TX 78660, USA",13800 Long Meadow in Travis (TX),30.406598,-97.63359799999999,1,78660,OK
443,"341 King St E, Toronto, ON M5A 4R7, Canada",Georgian Dr & Anderson Ln in Austin (TX),43.6513281,-79.36573949999999,1,M5A 4R7,OK
444,"1820 Wooten Park Dr, Austin, TX 78757, USA",1820 Wooten Park Dr. in Austin (TX),30.3545348,-97.7249748,1,78757,OK
445,"7901 Bramble Bush Dr, Austin, TX 78747, USA",7901 Bramble Drive in Austin (TX),30.158677,-97.7385511,1,78747,OK
446,"Sterzing St & Barton Springs Rd, Austin, TX 78704, USA",Barton Springs And Sterzing St in Austin (TX),30.26384609999999,-97.7636349,1,78704,OK
447,"9807 Capitol View Dr, Austin, TX 78747, USA",9807 Capitol View in Travis (TX),30.1396979,-97.750986,1,78747,OK
448,"Montopolis Dr & E Riverside Dr, Austin, TX 78741, USA",Montopolis And Riverside in Austin (TX),30.2248747,-97.7034758,1,78741,OK
449,"Harris Branch Neighborhood Park, Farmhaven Rd, Austin, TX 78754, USA",Harris Branch Sub Dividion in Austin (TX),30.34994,-97.6193857,2,78754,OK
450,"Atkinson Rd & Blessing Ave, Austin, TX 78752, USA",Blessing Ave And Atkinson Rd in Austin (TX),30.32561,-97.6970436,1,78752,OK
451,"N Lamar Blvd & Ferguson Dr, Austin, TX 78758, USA",North Lamar And Ferguson in Austin (TX),30.3776572,-97.6887895,1,78758,OK
452,"Merrilltown Dr & Bratton Ln, Wells Branch, TX 78728, USA",Bratton Lane And Merriltown Ln in Austin (TX),30.4458373,-97.68655530000001,1,78728,OK
453,"1600 Wickersham Ln, Austin, TX 78741, USA",1600 Wickersham Ln in Austin (TX),30.2364768,-97.718735,1,78741,OK
454,"Ross Rd & E Hwy 71, Garfield, TX 78617, USA",Ross Rd And Highway 71 in Austin (TX),30.1864188,-97.60953789999999,1,78617,OK
455,"Harvey St & E 18th St, Austin, TX 78702, USA",E 18Th And Harvey in Austin (TX),30.2807918,-97.70526509999999,1,78702,OK
456,"7201 Levander Loop, Austin, TX 78702, USA",7201 Levander Loop in Austin (TX),30.2527847,-97.6904186,1,78702,OK
457,"2443 E State Hwy 71 Service Rd, Del Valle, TX 78617, USA",2443 East State Highway 71 Service Road in Del Valle (TX),30.2135971,-97.6587959,1,78617,OK
458,"4014 W William Cannon Dr, Austin, TX 78749, USA",4014 W William Cannon Dr in Austin (TX),30.219592,-97.835475,1,78749,OK
459,"2000 Cedar Bend Dr, Austin, TX 78758, USA",2000 Cedar Bend Drive in Austin (TX),30.409552,-97.69798499999999,1,78758,OK
460,"8210 Alcorn Cir, Austin, TX 78748, USA",8210 Alcorn Circle in Austin (TX),30.1796753,-97.7948863,1,78748,OK
461,"115 Pine Knoll Dr, Battle Creek, MI 49014, USA",Pine Knoll Dr & Leaning Willow in Austin (TX),42.307266,-85.123434,1,49014,OK
462,"4504 Sojourner St, Austin, TX 78725, USA",4504 Sojourner Street in Austin (TX),30.2441933,-97.5867095,1,78725,OK
463,"2006 Blue Meadow Dr, Austin, TX 78744, USA",2006 Blue Meadow in Austin (TX),30.18265469999999,-97.7658428,1,78744,OK
464,"Montopolis Dr & Marigold Terrace, Austin, TX 78741, USA",Marigold Terrace And Montopolis in Austin (TX),30.2300634,-97.70019909999999,1,78741,OK
465,"2200 Lakehurst Dr, Austin, TX 78744, USA",2200 Lakehurst Dr. in Travis (TX),30.1860345,-97.7589163,1,78744,OK
466,"1156 W Cesar Chavez St, Austin, TX 78703, USA",1156 W Cesar Chavez St in Austin (TX),30.269764,-97.7591144,1,78703,OK
467,"2501 Wickersham Ln, Austin, TX 78741, USA",2501 Wickersham Ln in Austin (TX),30.22470109999999,-97.72505149999999,1,78741,OK
468,"Friendship Quilt Ln & Lantern Dr, Settler's Meadow, TX 78660, USA",Friendship Quilt And Lantern in Pflugerville (TX),30.4300772,-97.63794999999999,1,78660,OK
469,"1620 E Riverside Dr, Austin, TX 78741, USA",1620 East Riverside in Austin (TX),30.2452206,-97.7301827,1,78741,OK
470,,1071 Clayton #1533 in Austin (TX),,,0,,REQUEST_DENIED
471,"14300 FM 969, Austin, TX 78724, USA",14300 Fm 969 in Webberville (TX),30.2479577,-97.5835934,1,78724,OK
472,"1700 W Dittmar Rd, Austin, TX 78745, USA",1700 W. Dittmar Rd. in Austin (TX),30.1856408,-97.8128673,1,78745,OK
473,"7800 Shoal Creek Blvd, Austin, TX 78757, USA",7800 Shoal Creek Blvd in Austin (TX),30.3602128,-97.7423068,1,78757,OK
474,"5301 E Stassney Ln, Austin, TX 78744, USA",5301 E Stassney Ln in Austin (TX),30.192417,-97.7383177,1,78744,OK
475,"12800 Thome Valley Dr, Del Valle, TX 78617, USA",12800  Thome Valley Dr in Del Valle (TX),30.1728757,-97.6165932,1,78617,OK
476,"2701 E 7th St, Austin, TX 78702, USA",7Th/Pleasant Valley in Austin (TX),30.2591721,-97.7117578,1,78702,OK
477,"7201 Levander Loop, Austin, TX 78702, USA",7201 Levander Loop in Austin (TX),30.2527847,-97.6904186,1,78702,OK
478,"Palo Blanco Ln & Hammermill Run, Austin, TX 78744, USA",Hammermill Run And Palo Blanco Ln in Austin (TX),30.19168849999999,-97.7477852,1,78744,OK
479,"8509 FM 969, Austin, TX 78724, USA",8509 Farm To Market 969 in Austin (TX),30.2729138,-97.638581,1,78724,OK
480,"Lansing Dr & Manchaca Rd, Austin, TX 78745, USA",Manchaca And Lansing in Austin (TX),30.2234606,-97.7924311,1,78745,OK
481,"Arbor Hill Ln & Little Theater Bend, Texas 78747, USA",Little Theater Bend And Arbor Hill Lane in Austin (TX),30.1427168,-97.76692609999999,1,78747,OK
482,"14912 Staked Plains Loop, Austin, TX 78717, USA",14912 Staked Plains Loop in Austin (TX),30.5004279,-97.7924656,1,78717,OK
483,"409 E William Cannon Dr, Austin, TX 78745, USA",409 E William Cannon Dr in Austin (TX),30.1912446,-97.7757,1,78745,OK
484,"4434 Frontier Trail, Austin, TX 78745, USA",4434 Frontier Trl in Austin (TX),30.23144,-97.795757,1,78745,OK
485,"Red River St, Austin, TX, USA",Red River St & Duncan Ln in Austin (TX),30.2855467,-97.7272569,1,,OK
486,"Harris Branch Pkwy, Texas, USA",Harris Branch Parkway & Blue Goose in Austin (TX),30.36426969999999,-97.61331469999999,2,,OK
487,"7201 Levander Loop, Austin, TX 78702, USA",7201 Levander Loop in Austin (TX),30.2527847,-97.6904186,1,78702,OK
488,"21506 Ann Showers Dr, Elgin, TX 78621, USA",21506 Ann Showers in Travis (TX),30.278975,-97.477453,1,78621,OK
489,"1600 Wickersham Ln, Austin, TX 78741, USA",1600 Wickersham Ln in Austin (TX),30.2364768,-97.718735,1,78741,OK
490,"1000 Payton Gin Rd, Austin, TX 78758, USA",Payton Gin And Fairfield in Austin (TX),30.3602742,-97.704568,2,78758,OK
491,"Holly St & Waller St, Austin, TX 78702, USA",Holly St And Waller St in Austin (TX),30.2563249,-97.73425759999999,1,78702,OK
492,"10706 Plains Trail, Austin, TX 78758, USA",10706 Plains Trl in Austin (TX),30.3802807,-97.69544929999999,1,78758,OK
493,"Bartholomew District Park, 5201 Berkman Dr, Austin, TX 78723, USA",Bartholomew Park in Austin (TX),30.3034465,-97.6961589,1,78723,OK
494,"Walnut Creek Park Rd, Austin, TX, USA",1101 Walnut Creek Park Road in Austin (TX),30.400978,-97.6830007,1,,OK
495,"1156 W Cesar Chavez St, Austin, TX 78703, USA",1156 W Cesar Chavez in Austin (TX),30.269764,-97.7591144,1,78703,OK
496,"3106 Lynridge Dr, Austin, TX 78723, USA",3106 Lynridge Dr in Austin (TX),30.3178715,-97.6658957,1,78723,OK
497,"E St Elmo Rd, Austin, TX, USA",E St Elmo Rd & Friedrich Ln in Austin (TX),30.2112363,-97.7495916,1,,OK
498,"2402 Lake Austin Blvd, Austin, TX 78703, USA",2402 Lake Austin Blvd in Austin (TX),30.2784481,-97.7723808,1,78703,OK
499,"Burleson Rd & E Stassney Ln, Austin, TX 78744, USA",Stassney Ln And Burleson Rd in Austin (TX),30.2055131,-97.7165557,1,78744,OK
500,"16901 Hayride Cir, Del Valle, TX 78617, USA",16901 Hayride Circle in Travis (TX),30.14113249999999,-97.5758163,1,78617,OK
501,"TX-71, Austin, TX, USA",Riverside And Ih 71 in Austin (TX),30.2269133,-97.7697702,1,,OK
502,"Gilbert Rd & Webberville Rd, Texas 78724, USA",Gilbert And Webberville in Austin (TX),30.2514258,-97.5956571,1,78724,OK
503,"3445 Executive Center Dr, Austin, TX 78731, USA",3445 Executive Center Dr in Austin (TX),30.3597116,-97.7477392,1,78731,OK
504,"6800 Bill Hughes Rd, Austin, TX 78745, USA",6800 Bill Hughes Rd in Austin (TX),30.196163,-97.7862169,1,78745,OK
505,"13701 N Interstate 35 Frontage Rd, Austin, TX 78753, USA",13701 N Interstate 35 Frontage Rd in Pflugerville (TX),30.4247381,-97.6710837,1,78753,OK
506,"6514 Wolfcreek Pass, Austin, TX 78749, USA",6514 Wolfcreek Pass in Austin (TX),30.23276199999999,-97.8699929,1,78749,OK
507,"1489 FM812, Cedar Creek, TX 78612, USA",High View Ranch Dr in Travis (TX),30.0230757,-97.5410256,1,78612,OK
508,"2425 Basswood Ln, Austin, TX 78723, USA",2425 Brasswood Dr in Austin (TX),30.2949486,-97.67916389999999,1,78723,OK
509,"3421 W William Cannon Dr, Austin, TX 78745, USA",3421 W William Cannon in Austin (TX),30.2129179,-97.8295078,1,78745,OK
510,"Oak Springs Dr & Airport Blvd, Austin, TX 78721, USA",Airport Blvd And Oak Springs in Austin (TX),30.2736074,-97.69792489999999,1,78721,OK
511,"E William Cannon Dr & S IH 35 Frontage Rd, Austin, TX 78745, USA",Ih 35 And William Cannon in Austin (TX),30.1907255,-97.7708608,1,78745,OK
512,"423 Thompson Ln, Austin, TX 78742, USA",423 Thompson Lane in Austin (TX),30.237822,-97.68116,1,78742,OK
513,"2600 Mallard Green Cove, Austin, TX 78728, USA",2600 Mallard Green Cove in Austin (TX),30.4520404,-97.6814765,1,78728,OK
514,"Gus Fruh, 2642 Barton Hills Dr, Austin, TX 78704, USA",Greenbelt At Gus Fruh in Austin (TX),30.2479127,-97.7964269,2,78704,OK
515,"9927 Peterson Rd, Del Valle, TX 78617, USA",9927 Peterson Rd in Del Valle (TX),30.103522,-97.62939999999999,1,78617,OK
516,"E Stassney Ln & Dove Dr, Austin, TX 78744, USA",Dove Dr And Stassney Ln in Austin (TX),30.1933596,-97.7544334,1,78744,OK
517,"3400 Cambridge Ct, Austin, TX 78723, USA",3400 Cambridge Court in Austin (TX),30.28446709999999,-97.70015690000001,1,78723,OK
518,"Dessau Rd & Eaton Brook Ave, River Ranch, TX 78754, USA",Dessau Rd And Eaton Brook Ave in Austin (TX),30.3993258,-97.6411158,1,78754,OK
519,"E Parmer Ln, Texas, USA",Parmer/ Harrias Branch in Austin (TX),30.3750748,-97.62971499999999,1,,OK
520,"Springdale Rd & Sara Dr, Austin, TX 78721, USA",Springdale Road And Sara Drive in Austin (TX),30.2720476,-97.69137119999999,1,78721,OK
521,"Montopolis Dr & E Riverside Dr, Austin, TX 78741, USA",Riverside And Montopolis Dr in Austin (TX),30.2248747,-97.7034758,1,78741,OK
522,"E William Cannon Dr & Dixie Dr, Austin, TX 78744, USA",E William Cannon Dr And Dixie Dr in Austin (TX),30.1696648,-97.7388158,1,78744,OK
523,"2701 E 7th St, Austin, TX 78702, USA",2701 East 7Th Street in Austin (TX),30.2591848,-97.7115457,1,78702,OK
524,"5811 Whitebrook Dr, Austin, TX 78724, USA",5811 Whitebrook Dr. in Austin (TX),30.3048522,-97.65347580000001,1,78724,OK
525,"12400 Burr Ridge Dr, Austin, TX 78729, USA",12400 Burr Ridge in Austin (TX),30.448767,-97.78093500000001,1,78729,OK
526,"12811 Armstrong Ave, Manor, TX 78653, USA",12811 Armstrong Ave in Travis (TX),30.3462647,-97.5254118,1,78653,OK
527,"Edmundsbury Dr, Austin, TX 78747, USA",Edmundsbury/Stambough Lane in Austin (TX),30.1483361,-97.7403509,1,78747,OK
528,"Berkman Dr, Austin, TX, USA",Berkman Dr & Briarcliff Blvd in Austin (TX),30.3099719,-97.695042,5,,OK
529,"212 Hokanson Rd, Del Valle, TX 78617, USA",212 Hokanson Road in Del Valle (TX),30.0839546,-97.61815709999999,1,78617,OK
530,"McKinney Falls State Park, 5808 McKinney Falls Pkwy, Austin, TX 78744, USA",Burleson And Mckinney Falls in Travis (TX),30.1836487,-97.72219439999999,2,78744,OK
531,"7811 Burleson Manor Rd, Manor, TX 78653, USA",7811 Burleson Manor Rd in Travis (TX),30.266241,-97.519959,1,78653,OK
532,"10463 Sprinkle Rd, Austin, TX 78754, USA",10463 Sprinkle Rd in Austin (TX),30.3518212,-97.6473303,1,78754,OK
533,"FM1625 & Sassman Rd, Texas 78747, USA",Fm 1625/Sassman Rd in Travis (TX),30.1289805,-97.7101519,1,78747,OK
534,"Cameron Rd & E St Johns Ave, Austin, TX 78752, USA",Saint Johns And Cameron Road in Austin (TX),30.3260912,-97.6923604,1,78752,OK
535,"Scofield Farms Dr, Austin, TX, USA",Scofield Farms Rd in Austin (TX),30.4133966,-97.6850192,1,,OK
536,"18536 Blue Pond Dr, Pflugerville, TX 78660, USA",18536 Blue Pond Dr in Pflugerville (TX),30.4498461,-97.5656254,1,78660,OK
537,"FM1327 & FM1625, Creedmoor, TX 78610, USA",Fm 1327 And Fm 1625 in Travis (TX),30.0900568,-97.7345466,1,78610,OK
538,"Chick Pea Ln & Ralph Ablanedo Dr, Austin, TX 78748, USA",Chick Pea Ln And Ralph Ablanedo Dr in Austin (TX),30.17411,-97.78821060000001,1,78748,OK
539,"115 Laurelwood Dr N, Austin, TX 78733, USA",115 N Laurelwood Dr in Travis (TX),30.32993489999999,-97.87570570000001,1,78733,OK
540,"9717 E US Highway 290, Austin, TX 78724, United States",9717 E. Us Highway 290 in Austin (TX),30.332217,-97.61517599999999,1,78724,OK
541,"N Dittmar Rd, Arlington, VA 22207, USA",Dittmar Rd & S First St in Austin (TX),38.9162282,-77.130104,8,22207,OK
542,"6608 Johnny Morris Cove, Austin, TX 78724, USA",6608 Johnnie Morris Cove in Austin (TX),30.3055599,-97.64348439999999,1,78724,OK
543,"MoPac Expy, Austin, TX, USA",Stratford Dr And Mopac Expy in Austin (TX),30.3212785,-97.7561655,1,,OK
544,"Stratford Dr, Austin, TX 78746, USA",Stratford Drive & Barton Springs in Austin (TX),30.2778515,-97.7804012,1,78746,OK
545,"General Williamson Dr, Texas 78734, USA",General Williamson Drive in Travis (TX),30.3891303,-97.9299705,1,78734,OK
546,"10001 Peterson Rd, Del Valle, TX 78617, USA",10001 Peterson Rd in Del Valle (TX),30.1038794,-97.6291936,1,78617,OK
547,"8921 Sun Shower Bend, Austin, TX 78724, USA",8921 Sun Shower Bend in Austin (TX),30.2778105,-97.63262569999999,1,78724,OK
548,"Austin, TX, USA",553 Robert E. Lee in Austin (TX),30.267153,-97.7430608,1,,OK
549,"Dessau Rd & E Braker Ln, Austin, TX 78753, USA",Dessau And Braker Ln in Austin (TX),30.3772652,-97.6587828,1,78753,OK
550,"N Lamar Blvd & W Rundberg Ln, Austin, TX 78753, USA",Rundberg And Lamar in Austin (TX),30.363062,-97.6970274,1,78753,OK
551,"FM 969 & Decker Ln, Austin, TX 78724, USA",Fm 969/Decker Lane in Travis (TX),30.276794,-97.6372739,1,78724,OK
552,"1200 Montopolis Dr, Austin, TX 78741, USA",1200 Montopolis Drive in Austin (TX),30.2322315,-97.6998813,1,78741,OK
553,"3700 Manchaca Rd, Austin, TX 78704, USA",3700 Manchaca Rd in Austin (TX),30.2364313,-97.7845244,1,78704,OK
554,"Lockwood Rd & Parsons Rd, The Post Oak, TX 78653, USA",Parson Road And Lockwood Rd in Manor (TX),30.3079403,-97.5151029,1,78653,OK
555,"S Lamar Blvd, Texas, USA",S Lamar Blvd & Westgate Blvd in Austin (TX),30.2452249,-97.78009379999999,2,,OK
556,"12419 Metric Blvd, Austin, TX 78758, USA",12419 Metric Blvd in Austin (TX),30.4113627,-97.6915688,1,78758,OK
557,"2508 E Riverside Dr, Austin, TX 78741, USA",2508 East Riverside Drive in Austin (TX),30.2364302,-97.7221515,1,78741,OK
558,"6813 Great Northern Blvd, Austin, TX 78757, USA",6813 Great Northern Blvd in Austin (TX),30.3498522,-97.7480336,1,78757,OK
559,"Oak Springs Dr & Airport Blvd, Austin, TX 78721, USA",Oaks Springs And Airport Blvd in Austin (TX),30.2736074,-97.69792489999999,1,78721,OK
560,,1003 Justin Ln #1050 in Austin (TX),,,0,,REQUEST_DENIED
561,"600 Barwood Park, Austin, TX 78753, USA",600 Barwood Park in Austin (TX),30.3494202,-97.6966786,1,78753,OK
562,"5404 Spring Meadow Rd, Austin, TX 78744, USA",5404 Spring Meadow in Austin (TX),30.1960146,-97.7346896,1,78744,OK
563,"14401 Round Mountain Rd, Leander, TX 78641, USA",14401 Round Mountain Rd in Travis (TX),30.5732522,-97.94896279999999,1,78641,OK
564,"8101 Salt Springs Dr, Austin, TX 78744, USA",8101 Salt Springs Dr in Austin (TX),30.1588114,-97.74538369999999,1,78744,OK
565,"12400 Stoneridge Gap Ln, Manor, TX 78653, USA",12400 Stoneridge Gap Ln in Manor (TX),30.365681,-97.520643,1,78653,OK
566,,2400 Wickersham #290 in Austin (TX),,,0,,REQUEST_DENIED
567,"3902 Veiled Falls Dr, Pflugerville, TX 78660, USA",3902 Veiled Falls in Travis (TX),30.4546699,-97.5682228,1,78660,OK
568,"Buckthorn Dr & Oak View Dr, Austin, TX 78759, USA",Buckthorn And Oak View in Austin (TX),30.4174985,-97.7690672,1,78759,OK
569,"7201 Levander Loop, Austin, TX 78702, USA",7201 Levander Loop in Austin (TX),30.2527847,-97.6904186,1,78702,OK
570,"7218 Lake Charles Dr, Austin, TX 78744, USA",7218 Lakecharles Dr in Austin (TX),30.1678054,-97.7418188,1,78744,OK
571,"Manchaca, TX, USA",Manchaca & Lamar in Austin (TX),30.1405249,-97.8330491,1,,OK
572,"13700 Spring Heath Rd, Pflugerville, TX 78660, USA",13700 Spring Heath Rd in Pflugerville (TX),30.4183255,-97.6586423,1,78660,OK
573,"Montopolis Dr & E Riverside Dr, Austin, TX 78741, USA",Montopolis And Riverside in Austin (TX),30.2248747,-97.7034758,1,78741,OK
574,"6812 Breezy Hill Dr, Austin, TX 78724, USA",6812 Breezy Hill in Austin (TX),30.3099164,-97.6373291,1,78724,OK
575,,1308 Thornberry Rd #86 in Austin (TX),,,0,,REQUEST_DENIED
576,"Teri Rd & E Stassney Ln, Austin, TX 78744, USA",E Stassney Ln And Teri Rd in Austin (TX),30.1912336,-97.7311115,1,78744,OK
577,"7020 Grand Canyon Dr, Austin, TX 78752, USA",7020 Grand Canyon in Austin (TX),30.3262645,-97.69564009999999,1,78752,OK
578,"3515 N Lamar Blvd, Austin, TX 78705, USA",3515 N Lamar Blvd in Austin (TX),30.3040867,-97.7434633,1,78705,OK
579,"1200 Barton Hills Dr #108, Austin, TX 78704, USA",1200 Barton Hills Dr Apt 108 in Austin (TX),30.2623431,-97.773973,1,78704,OK
580,"Parkfield Dr & Rutland Dr, Austin, TX 78758, USA",Parkfield Drive And Rutland Drive in Austin (TX),30.3692408,-97.70550440000001,1,78758,OK
581,"Kinney Ave & Margaret St, Austin, TX 78704, USA",Kinney Avenue And Margaret St in Austin (TX),30.2563234,-97.76567899999999,1,78704,OK
582,"E 12th St & Springdale Rd, Austin, TX 78721, USA",Springdale And 12Th Street in Austin (TX),30.2789614,-97.6870409,1,78721,OK
583,"21506 Ann Showers Dr, Elgin, TX 78621, USA",21506 Ann Showers in Travis (TX),30.278975,-97.477453,1,78621,OK
584,"12201 Prairie Glen Ct, Del Valle, TX 78617, USA",12201 Prairie Glen Ct in Del Valle (TX),30.1608093,-97.63643929999999,1,78617,OK
585,"Tanglebriar Trail & Quarter Horse Trail, Austin, TX 78750, USA",Quarter Horse And Tanglebriar Trail in Austin (TX),30.4587306,-97.8178105,1,78750,OK
586,"Seminole Dr & Sheffield Dr, Austin, TX 78745, USA",Sheffield Dr And Seminole Dr in Austin (TX),30.2108836,-97.7661222,1,78745,OK
587,"18800 Hamilton Pool Rd, Dripping Springs, TX 78620, USA",18800 Hamilton Pool Rd in Travis (TX),30.2868113,-98.06461759999999,1,78620,OK
588,"913 N Meadows Dr, Austin, TX 78758, USA",913 N Meadows Dr in Austin (TX),30.3756691,-97.6939649,1,78758,OK
589,"9427 Middle Fiskville Rd, Austin, TX 78753, USA",Fairway And Blue Bell in Austin (TX),30.3581882,-97.6857268,1,78753,OK
590,"5401 E Parmer Ln, Manor, TX 78653, USA",5401 East Parmer Lane in Austin (TX),30.368484,-97.618765,1,78653,OK
591,"3101 Wells Branch Pkwy, Austin, TX 78728, USA",3101 Wells Branch Parkway in Austin (TX),30.4408838,-97.69330730000001,1,78728,OK
592,"Round Mountain, Lakeway, TX 78734, USA",16672 Round Mountain in Travis (TX),30.37038029999999,-97.9579242,1,78734,OK
593,"E Parmer Ln & Dessau Rd, Austin, TX 78754, USA",Dessau And Parmer Ln in Austin (TX),30.3868874,-97.64854679999999,1,78754,OK
594,"2504 Huntwick Dr, Austin, TX 78741, USA",2504 Huntwick Dr in Austin (TX),30.223966,-97.72762469999999,1,78741,OK
595,"Jollyville Rd, Austin, TX 78759, USA",Jollyville Rd & Mesa Dr in Austin (TX),30.4065779,-97.74789489999999,3,78759,OK
596,"3702 Sojourner St, Austin, TX 78725, USA",3702 Sojourner St in Austin (TX),30.2383837,-97.5903089,1,78725,OK
597,"Chalmers Ave & Willow St, Austin, TX 78702, USA",Williow St And Chalmers Ave in Austin (TX),30.25689289999999,-97.7270624,1,78702,OK
598,"10606 Old Lockhart Rd, Austin, TX 78747, USA",10606 Old Lochart in Austin (TX),30.126817,-97.75792399999999,1,78747,OK
599,"3603 Southridge Dr, Austin, TX 78704, USA",3603 Southridge Dr in Austin (TX),30.23474,-97.77690079999999,1,78704,OK
600,"3354 Lake Austin Blvd, Austin, TX 78703, USA",3354 Lake Austin Boulevard in Austin (TX),30.2879204,-97.7813374,1,78703,OK
601,"Navasota St & E 3rd St, Austin, TX 78702, USA",East 3Rd St And Navasota in Austin (TX),30.2610012,-97.7297917,1,78702,OK
602,"1310 W Howard Ln, Austin, TX 78728, USA",1310 W Howard Ln in Austin (TX),30.4250017,-97.67204129999999,1,78728,OK
603,"6303 Waynesburg Cove, Austin, TX 78723, USA",6303 Waynesburg Cv in Austin (TX),30.3028458,-97.6655565,1,78723,OK
604,"Thompson Ln & S Hwy 183, Austin, TX 78741, USA",S Hwy 183 And Thompson Ln in Austin (TX),30.2366336,-97.68618289999999,1,78741,OK
605,"Shoal Creek Blvd, Austin, TX, USA",Shoal Creek Blvd & Stardust Dr in Austin (TX),30.3255897,-97.7449568,4,,OK
606,"Sol Wilson Ave & Ridgeway Dr, Austin, TX 78702, USA",Sol Wilson And Ridgeway in Austin (TX),30.2752152,-97.70430759999999,1,78702,OK
607,"Montopolis Dr & E Riverside Dr, Austin, TX 78741, USA",Montopolis And Riverside in Austin (TX),30.2248747,-97.7034758,1,78741,OK
608,"1420 E Anderson Ln, Austin, TX 78752, USA",1420 E. Anderson in Austin (TX),30.3334196,-97.68664969999999,1,78752,OK
609,"907 W Slaughter Ln, Austin, TX 78748, USA",907 W Slaughter Ln in Austin (TX),30.1587351,-97.80824439999999,2,78748,OK
610,"2815 E Slaughter Ln, Austin, TX 78744, USA",2815 E Slaughter Ln in Austin (TX),30.1530097,-97.77279209999999,1,78744,OK
611,"E Howard Ln & Harris Ridge Blvd, Northtown Park, TX 78660, USA",Harris Ridge And Howard Lane in Austin (TX),30.40965319999999,-97.64861189999999,1,78660,OK
612,"98 San Jacinto Blvd 4th floor, Austin, TX 78701, USA",4Th /San Jacinto in Austin (TX),30.262563,-97.742913,2,78701,OK
613,"Montopolis Dr & Clovis St, Austin, TX 78741, USA",Clovis St And Montopolis Dr in Austin (TX),30.2427528,-97.6920593,1,78741,OK
614,"8312 I-35, Austin, TX 78753, USA",8312 North Ih 35 in Austin (TX),30.3470435,-97.6970982,1,78753,OK
615,"9216 Edmundsbury Dr, Austin, TX 78747, USA",9216 Edmundsbury Drive in Austin (TX),30.1465313,-97.73927259999999,1,78747,OK
616,"Wyldwood Rd & Brodie Ln, Shady Hollow, TX 78748, USA",Brodie Ln And Wyldwood in Austin (TX),30.1754336,-97.8550284,1,78748,OK
617,"215 E 6th St, Austin, TX 78701, USA",215 E 6Th Street in Austin (TX),30.2671889,-97.74096999999999,2,78701,OK
618,"1500 W 38th St #20, Austin, TX 78731, USA",Hargrave And Neal in Austin (TX),30.30816699999999,-97.7488566,1,78731,OK
619,"Airport Blvd, Alabama, USA",Airport Blvd & Springdale Rd in Austin (TX),30.673568,-88.250519,10,,OK
620,"2201 Barton Springs Rd, Austin, TX 78746, USA",2201 Barton Springs Rd in Austin (TX),30.2636355,-97.7706985,1,78746,OK
621,"E Ben White Blvd & S Congress Ave, Austin, TX 78704, USA",East Ben White And South Congress in Austin (TX),30.223409,-97.763598,2,78704,OK
622,"1034 Liberty Park Dr, Austin, TX 78746, USA",1034 Liberty Park Dr in Austin (TX),30.2677153,-97.78756059999999,1,78746,OK
623,"Amherst Dr & Duval Rd, Austin, TX 78759, USA",Duval And Amherst in Austin (TX),30.4116546,-97.7220921,1,78759,OK
624,"102 E Rundberg Ln, Austin, TX 78753, USA",102 E Rundberg Ln in Austin (TX),30.3638869,-97.6916658,1,78753,OK
625,,11413 Ptarmigan Dr #B in Austin (TX),,,0,,REQUEST_DENIED
626,"8106 FM734, Manor, TX 78653, USA",8106 Parmer Lane in Travis (TX),30.3525765,-97.5923356,1,78653,OK
627,"5201 Purple Sage Dr, Austin, TX 78724, USA",5201 Purple Sage Drive in Austin (TX),30.3114779,-97.65962189999999,1,78724,OK
628,"Eskew Dr & Wykeham Dr, Austin, TX 78749, USA",Wykeham Dr And Eskew Dr in Austin (TX),30.2051075,-97.8414828,1,78749,OK
629,"7212 Ondantra Bend, Austin, TX 78744, USA",7212 Ondantra Bend in Austin (TX),30.1622463,-97.730339,1,78744,OK
630,"168 Tiffany Trail, Austin, TX 78719, USA",168 Tiffany Trail in Austin (TX),30.103113,-97.679417,1,78719,OK
631,"7100 Ritchie Dr, Austin, TX 78724, USA",7100 Ritchie Drive in Austin (TX),30.302155,-97.63787049999999,1,78724,OK
632,"Manchaca Rd & Redwater Dr, Texas 78748, USA",Redwater Dr And Manchaca Rd in Austin (TX),30.1679972,-97.8262688,1,78748,OK
633,"8900 Collinfield Dr, Austin, TX 78758, USA",8900 Collinfield in Austin (TX),30.361282,-97.7060738,1,78758,OK
634,"Wells Branch Pkwy, Texas, USA",Wells Branch Pkwy & Tandem Blvd in Austin (TX),30.428552,-97.6465387,2,,OK
635,"Knottingham Dr & Edgerly Ln, Pflugerville, TX 78660, USA",Edgerly Ln And Knottingham in Pflugerville (TX),30.4530346,-97.64782009999999,1,78660,OK
636,"325 E Garrett Run, Austin, TX 78753, USA",325 E Garrett Run in Austin (TX),30.3667772,-97.6861197,1,78753,OK
637,"E 12th St & Webberville Rd, Austin, TX 78721, USA",Webberville And 12Th St in Austin (TX),30.2780868,-97.6850527,1,78721,OK
638,"Henge Dr & Barrington Way, Austin, TX 78759, USA",Barrington/ Henge in Austin (TX),30.4224183,-97.7728396,1,78759,OK
639,"Colinton Ave & Harris Branch Pkwy, Austin, TX 78653, USA",Harris Branch/Colinton Ave in Austin (TX),30.3726748,-97.6119243,1,78653,OK
640,"11717 McAngus Rd, Del Valle, TX 78617, USA",11717 Mcangus in Del Valle (TX),30.143134,-97.654421,1,78617,OK
641,"10506 Brownie Dr, Austin, TX 78753, USA",10506 Brownie Drive in Austin (TX),30.3704579,-97.682897,1,78753,OK
642,"4713 Oak Cliff Dr, Austin, TX 78721, USA",4713 Oak Cliff Dr in Austin (TX),30.283554,-97.6814129,1,78721,OK
643,"E Ben White Blvd & E Riverside Dr, Austin, TX 78744, USA",E Ben White Blvd And E Riverside Dr in Austin (TX),30.2180201,-97.69065479999999,1,78744,OK
644,"7216 Northeast Dr, Austin, TX 78723, USA",7216 Northeast Drive in Austin (TX),30.3205203,-97.6804635,1,78723,OK
645,"1100 Tinnin Ford Rd, Austin, TX 78741, USA",1100 Block Of Tinnin Ford in Austin (TX),30.2442141,-97.72449449999999,1,78741,OK
646,"East Cesar Chavez, Austin, TX 78702, USA",East Cesar Chavez in Austin (TX),30.2585193,-97.7286604,1,78702,OK
647,"11117 Old Lockhart Rd, Austin, TX 78747, USA",11117 Old Lockhart Rd in Austin (TX),30.1182925,-97.75056160000001,1,78747,OK
648,"General Williamson Dr, Austin, TX 78734, USA",General Williamson Dr in Austin (TX),30.3891303,-97.9299705,1,78734,OK
649,"5201 Cameron Rd, Austin, TX 78723, USA",Cameron Road And Berkman Road in Austin (TX),30.3100107,-97.70845399999999,1,78723,OK
650,"10008 Capitol View Dr, Austin, TX 78747, USA",10008 Capitol View Dr in Austin (TX),30.1374672,-97.7532674,1,78747,OK
651,"4905 Carsonhill Dr, Austin, TX 78723, USA",4905 Carsonhill Dr in Austin (TX),30.2908567,-97.6745018,1,78723,OK
652,"2210 Marcus Abrams Blvd, Austin, TX 78748, USA",2210 Marcus Abrams Blvd in Austin (TX),30.1535742,-97.8387714,1,78748,OK
653,"S Lamar Blvd, Texas, USA",S Lamar Blvd & Treadwell St in Austin (TX),30.2452249,-97.78009379999999,2,,OK
654,"Anken Dr, Austin, TX 78741, USA",Anken Drive & Willow Creek in Austin (TX),30.2305686,-97.72816809999999,1,78741,OK
655,"Albert Brown Dr & Caldwell Ln, Garfield, TX 78617, USA",Caldwell Ln And Albert Brown in Del Valle (TX),30.18728,-97.5562801,1,78617,OK
656,"5609 Honeybee Bend, Austin, TX 78744, USA",5609 Honey Bee Bnd in Austin (TX),30.1692683,-97.7489487,1,78744,OK
657,"2555 Western Trails Blvd, Austin, TX 78745, USA",2555 Western Trails in Austin (TX),30.22964339999999,-97.7980929,1,78745,OK
658,"5315 Ed Bluestein Blvd, Austin, TX 78723, USA",5315 Ed Bluestein Blvd in Austin (TX),30.29183299999999,-97.66242729999999,1,78723,OK
659,"Meander Dr & S Redondo Dr, Austin, TX 78721, USA",S Redondo Dr And Meander Dr in Austin (TX),30.2809256,-97.68107239999999,1,78721,OK
660,"12500 Sky Harbor Dr, Del Valle, TX 78617, USA",12500 Sky Harbor in Austin (TX),30.1687095,-97.6277954,1,78617,OK
661,"247 Wolfs Ln, Pelham, NY 10803, USA",Wolf Lane & Hwy 71 in Travis (TX),40.9058227,-73.8120086,1,10803,OK
662,"11213 Liberty Farms Dr, Austin, TX 78754, USA",11213 Liberty Farms Dr in Austin (TX),30.3606239,-97.641482,1,78754,OK
663,"Airport Blvd, Alabama, USA",Airport Blvd & Manor Rd in Austin (TX),30.673568,-88.250519,10,,OK
664,"11421 Flushwing Dr, Austin, TX 78754, USA",11421 Flushwing Dr in Austin (TX),30.3741127,-97.6496189,1,78754,OK
665,"E Martin Luther King Jr Blvd & Springdale Rd, Austin, TX 78721, USA",Springdale Rd And E Martin Luther King Jr Blvd in Austin (TX),30.28583459999999,-97.6826564,1,78721,OK
666,"124 W Anderson Ln, Austin, TX 78752, USA",124 W Anderson Ln in Austin (TX),30.3446809,-97.70522550000001,1,78752,OK
667,"Enfield Rd, Austin, TX 78703, USA",Enfield Rd & Woodlawn Blvd in Austin (TX),30.2877953,-97.76733139999999,10,78703,OK
668,"12443 Tech Ridge Blvd, Austin, TX 78753, USA",12443 Tech Ridge Blvd in Austin (TX),30.3980594,-97.66367009999999,1,78753,OK
669,"7200 Cameron Rd, Austin, TX 78752, USA",7200 Cameron Road in Austin (TX),30.3266834,-97.69245719999999,1,78752,OK
670,"Lexington St & Edwin Reinhardt Dr, Manor, TX 78653, USA",Edwin Reinhardt And Lexington Street in Manor (TX),30.3579108,-97.5503616,1,78653,OK
671,"12425 Mellow Meadow Dr, Austin, TX 78750, USA",12425 Mellow Meadow Dr in Austin (TX),30.458306,-97.79681839999999,1,78750,OK
672,"902 Sagebrush Dr, Austin, TX 78758, USA",Sagebrush And Lamar in Austin (TX),30.3749483,-97.69328639999999,1,78758,OK
673,"3101 W Terrace Dr, Austin, TX 78757, USA",3101 West Terrace Drive in Austin (TX),30.3452576,-97.7488214,1,78757,OK
674,"Wooten Park Dr & W Anderson Ln, Austin, TX 78757, USA",West Anderson Lane And Wooten Park Drive in Austin (TX),30.3525151,-97.7232406,1,78757,OK
675,"12211 Old Stage Trail, Austin, TX 78750, USA",12211 Old Stage Trl in Austin (TX),30.4529406,-97.79849639999999,1,78750,OK
676,"6412 S IH 35 Frontage Rd, Austin, TX 78745, USA",6412 S Interstate 35 in Austin (TX),30.19196999999999,-97.770426,1,78745,OK
677,"Navasota St & E 4th St, Austin, TX 78702, USA",4Th St And Navasota in Austin (TX),30.261891,-97.729373,1,78702,OK
678,"S 1st St & W William Cannon Dr, Austin, TX 78745, USA",S 1St And Wm Cannon in Austin (TX),30.1971751,-97.7877664,1,78745,OK
679,"3300 Killingsworth Ln LOT 10, Pflugerville, TX 78660, USA",3300 Killingsworth Lane Unit 10 in Travis (TX),30.4166248,-97.6140155,1,78660,OK
680,"Mansell Ave & Santa Anna St, Austin, TX 78721, USA",Mansell Ave And Santa Anna St in Austin (TX),30.274855,-97.6870325,1,78721,OK
681,"10000 N Lamar Blvd, Austin, TX 78753, USA",10000 N. Lamar Blvd in Austin (TX),30.3693126,-97.6951706,1,78753,OK
682,"1009 W Dittmar Rd, Austin, TX 78745, USA",1009 West Dittmar Road in Austin (TX),30.18505,-97.8020854,1,78745,OK
683,"10714 San Jose Ave, Del Valle, TX 78617, USA",10714 San Jose Ave in Travis (TX),30.148151,-97.66651399999999,1,78617,OK
684,"6902 Colony Park Dr, Austin, TX 78724, USA",6902 Colony Park in Austin (TX),30.3010962,-97.6441942,1,78724,OK
685,"6001 Shepherd Mountain Cove, Austin, TX 78730, USA",6001 Shepherd Mountain Cv in Austin (TX),30.356749,-97.795798,1,78730,OK
686,"1305 Citation Cir, Del Valle, TX 78617, USA",1305 Citation Circle in Del Valle (TX),30.2242795,-97.52098029999999,1,78617,OK
687,"Von Quintus Rd, Texas, USA",Von Quintus Rd & Burklund Farms Rd in Travis (TX),30.1023248,-97.6794158,1,,OK
688,"San Marcos, TX, USA",San Marcos & Parsons Street in Manor (TX),29.8832749,-97.9413941,1,,OK
689,"5100 Pecan Brook Dr, Austin, TX 78724, USA",5100 Pecan Brook Drive in Austin (TX),30.3178958,-97.65930089999999,1,78724,OK
690,,5800 Techni Center Dr # 1023 in Austin (TX),,,0,,REQUEST_DENIED
691,"10700 Legends Ln, Austin, TX 78747, USA",10700 Legends Ln in Austin (TX),30.1410494,-97.788325,1,78747,OK
692,"1403 Mearns Meadow Blvd, Austin, TX 78758, USA",1403 Mearns Meadow in Austin (TX),30.374554,-97.7045256,1,78758,OK
693,"W 15th St & Rio Grande St, Austin, TX 78701, USA",15Th /Rio Grande in Austin (TX),30.2788849,-97.74620499999999,1,78701,OK
694,"US-183, United States",Us-183 & Colton Rd in Travis (TX),36.0977518,-98.9541854,1,,OK
695,"1704 Nelms Dr, Austin, TX 78744, USA",1704 Nelms Drive in Austin (TX),30.1945143,-97.7645016,1,78744,OK
696,"1401 S Pleasant Valley Rd, Austin, TX 78741, USA",1401 S Pleasant Valley Rd in Austin (TX),30.2394802,-97.71829079999999,1,78741,OK
697,"E William Cannon Dr & S Pleasant Valley Rd, Austin, TX 78744, USA",E Wm Cannon And Pleasant Valley in Austin (TX),30.1799465,-97.7473728,1,78744,OK
698,"1200 Lily Terrace, Austin, TX 78741, USA",1200 Lily Terrace in Austin (TX),30.233656,-97.7027018,1,78741,OK
699,"River Plantation Drive & Players Path, Austin, TX 78747, USA",Players Path And River Plantation Drive in Austin (TX),30.1308743,-97.7756357,1,78747,OK
700,"Manchaca Rd & W Stassney Ln, Austin, TX 78745, USA",Stassney And Manchaca in Austin (TX),30.2153302,-97.7976757,1,78745,OK
701,"Magna Carta Loop & Virginia Dare Ln, Springdale Heights, TX 78754, USA",Magna Carta Loop And Virgina Dare in Austin (TX),30.3366022,-97.6483514,1,78754,OK
702,"10210 Ember Glen Dr, Austin, TX 78726, USA",10210 Ember Glen in Austin (TX),30.43660319999999,-97.8242446,1,78726,OK
703,"1156 W Cesar Chavez St, Austin, TX 78703, USA",1156 W Cesar Chavez in Austin (TX),30.269764,-97.7591144,1,78703,OK
704,"Lexington Meadow Ln, Berdoll Farms, TX 78617, USA",Lexington Meadows And St. Thomas in Travis (TX),30.1778274,-97.61738299999999,1,78617,OK
705,"4600 W Slaughter Ln, Austin, TX 78749, USA",4600 W Slaughter Ln in Austin (TX),30.196966,-97.860282,1,78749,OK
706,,3421 W. William Cannon #110 in Austin (TX),,,0,,REQUEST_DENIED
707,"2204 Santa Rita St, Austin, TX 78702, USA",2204 Santa Rita St in Austin (TX),30.2578075,-97.7193302,1,78702,OK
708,"Coventry Ln & Sweeney Ln, Austin, TX 78723, USA",Coventry And Sweeny in Austin (TX),30.3088108,-97.6837219,1,78723,OK
709,"Georgian Dr & W Anderson Ln, Austin, TX 78752, USA",W Anderson Ln And Georgian Dr in Austin (TX),30.3437783,-97.70550639999999,1,78752,OK
710,,8105 Research Blvd #51B in Austin (TX),,,0,,REQUEST_DENIED
711,"3703 Tower View Ct, Austin, TX 78723, USA",3703 Tower View Ct in Austin (TX),30.2876779,-97.7049498,1,78723,OK
712,"FM 969 & Decker Ln, Austin, TX 78724, USA",Fm 969 And Decker Ln in Austin (TX),30.276794,-97.6372739,1,78724,OK
713,"1504 Man O War Dr, Del Valle, TX 78617, USA",1504 Man O War in Del Valle (TX),30.221392,-97.5211999,1,78617,OK
714,"8121 Research Blvd, Austin, TX 78758, USA",8121 Research Boulevard in Austin (TX),30.3536335,-97.7139425,1,78758,OK
715,"Springdale Rd & Bolm Rd, Austin, TX 78702, USA",East Springdale Road And Bolm Road in Austin (TX),30.2611658,-97.6983893,1,78702,OK
716,"14000 Westall St, Austin, TX 78725, USA",14000 Westall Street in Austin (TX),30.2434086,-97.5905841,1,78725,OK
717,"E Ben White Blvd & S Congress Ave, Austin, TX 78704, USA",Ben White And South Congress in Austin (TX),30.223409,-97.763598,1,78704,OK
718,"9201 Circuit of the Americas Blvd, Austin, TX 78617, USA",Circuit Of The Americas in Travis (TX),30.1345808,-97.6358511,1,78617,OK
719,"8311 Annabelle Dr, Elgin, TX 78621, USA",8311 Annabelle Drive in Travis (TX),30.2741706,-97.46020569999999,1,78621,OK
720,"5811 Nuckols Crossing Rd, Austin, TX 78744, USA",5811 Nuckols Crossing in Austin (TX),30.1872469,-97.7422926,1,78744,OK
721,"2401 S Lakeshore Blvd, Austin, TX 78741, USA",2401 Lakeshore Blvd in Austin (TX),30.2433914,-97.7200009,1,78741,OK
722,"N Pleasant Valley Rd & E 5th St, Austin, TX 78702, USA",North Pleasant Valley Road And East 5Th Street in Austin (TX),30.2565975,-97.71111789999999,1,78702,OK
723,"Richardson Ln, Austin, TX 78741, USA",Montopolis/Richardson in Austin (TX),30.2365254,-97.69681589999999,1,78741,OK
724,"W Slaughter Ln & Riddle Rd, Austin, TX 78748, USA",Riddle And W Slaughter Ln in Austin (TX),30.1767266,-97.8352068,1,78748,OK
725,"10902 McAngus Rd, Del Valle, TX 78617, USA",10902 Mcangus Rd in Del Valle (TX),30.151058,-97.662662,1,78617,OK
726,"1400 Dominique Dr, Austin, TX 78753, USA",1400 Dominique Drive in Austin (TX),30.383104,-97.6588589,1,78753,OK
727,"Grayledge Dr & Hermitage Dr, Austin, TX 78753, USA",Greyledge And Hermitage in Austin (TX),30.3487645,-97.6923937,1,78753,OK
728,"3351 Killingsworth Ln, Pflugerville, TX 78660, USA",3351 Killingsworth Ln in Pflugerville (TX),30.4119936,-97.6059664,1,78660,OK
729,"1200 E Rundberg Ln, Austin, TX 78753, USA",1200 E Rundberg Ln in Austin (TX),30.354549,-97.67937700000002,1,78753,OK
730,"Wilshire Blvd & Airport Blvd, Austin, TX 78722, USA",Wilshire Boulevard And Airport Boulevard in Austin (TX),30.2977207,-97.7090295,1,78722,OK
731,"4400 Franklin Park Dr, Austin, TX 78744, USA",4400 Franklin Park in Austin (TX),30.20065839999999,-97.7472497,1,78744,OK
732,"7201 Levander Loop, Austin, TX 78702, USA",7201 Levander Loop in Austin (TX),30.2527847,-97.6904186,1,78702,OK
733,"Derby Downs Dr & Winter Haven Rd, Austin, TX 78747, USA",Derby Downs And Winter Haven in Austin (TX),30.1500101,-97.74069899999999,1,78747,OK
734,"Wells Branch Pkwy, Texas, USA",Wells Branch Pkwy & Merrilltown Dr in Austin (TX),30.428552,-97.6465387,2,,OK
735,"23 8p-10a, US-183, Austin, TX 78721, United States",183 & Exchange Drive in Austin (TX),30.2813576,-97.6663945,1,78721,OK
736,"14417 Jacobson Rd, Del Valle, TX 78617, USA",14417 Jacobson Rd in Travis (TX),30.1357732,-97.61589029999999,1,78617,OK
737,"14515 Thunderhead Rd, Austin, TX 78734, USA",14515 Thunderhead in Austin (TX),30.3730214,-97.9296013,1,78734,OK
738,"Castlekeep Way & Plumpton Dr, Austin, TX 78745, USA",Castlekeep Way And Plumpton Dr in Austin (TX),30.19469789999999,-97.79055029999999,1,78745,OK
739,"10800 US-183, Buda, TX 78610, USA",183 And Toll 130 in Travis (TX),30.0365073,-97.68715859999999,1,78610,OK
740,"1715 W Cesar Chavez St, Austin, TX 78703, USA",1715 W Cesar Chavez St in Austin (TX),30.2735577,-97.7667348,1,78703,OK
741,"9408 China Rose Dr, Austin, TX 78724, USA",9408 China Rose Dr in Austin (TX),30.2790214,-97.62415179999999,1,78724,OK
742,"7201 Manchaca Rd # B, Austin, TX 78745, USA",903 Fieldwood Dr B in Austin (TX),30.199254,-97.807191,1,78745,OK
743,"1803 Forest Hill Dr, Austin, TX 78745, USA",1803 Forest Hill Dr in Austin (TX),30.2245767,-97.7889514,1,78745,OK
744,"Pond Springs Rd & Cahill Dr, Austin, TX 78729, USA",Cahill Dr And Pond Springs Rd in Austin (TX),30.4433767,-97.7758076,1,78729,OK
745,"7221 Hillcroft Dr, Austin, TX 78724, USA",7221 Hillcroft Dr in Austin (TX),30.3042921,-97.64008360000001,1,78724,OK
746,"Adair Dr & Adair Cove, Austin, TX 78754, USA",Adair Drive And Adair Court in Austin (TX),30.3565757,-97.62162029999999,2,78754,OK
747,"Metlink Rd & Metro Center Dr, Austin, TX 78744, USA",Metro Center Dr And Metlink Rd in Austin (TX),30.2114827,-97.69561639999999,1,78744,OK
748,"E Stassney Ln & S Pleasant Valley Rd, Austin, TX 78744, USA",Stassney And S Pleasant Valley in Austin (TX),30.1940034,-97.74473669999999,1,78744,OK
749,"1713 Valeria St, Austin, TX 78704, USA",1713 Valeria Street in Austin (TX),30.25063369999999,-97.77167759999999,1,78704,OK
750,"5502 Rain Creek Pkwy, Austin, TX 78759, USA",5502 Rain Creek Parkway in Austin (TX),30.3984827,-97.7621071,1,78759,OK
751,"W 51st St & E 51st St, Austin, TX 78751, USA",W 51St And W 51St St in Austin (TX),30.3158294,-97.7231742,2,78751,OK
752,"7201 Levander Loop, Austin, TX 78702, USA",7201 Levander Loop in Austin (TX),30.2527847,-97.6904186,1,78702,OK
753,"Monsanto Dr, Austin, TX 78741, USA",Montoplis Dr And Monsanto Dr in Austin (TX),30.23886749999999,-97.6940954,1,78741,OK
754,"300 Colorado St, Austin, TX 78701, USA",300 Colorado St. in Austin (TX),30.2659685,-97.74531999999999,1,78701,OK
755,"E Martin Luther King Jr Blvd, Austin, TX, USA",E Martin Luther King Jr Blvd & Tillery St in Austin (TX),30.2828748,-97.70172939999999,1,,OK
756,"7201 Levander Loop, Austin, TX 78702, USA",7201 Levander Loop in Austin (TX),30.2527847,-97.6904186,1,78702,OK
757,"6400 Ed Bluestein Blvd, Austin, TX 78723, USA",6400 Ed Bluestein in Austin (TX),30.3017229,-97.661442,1,78723,OK
758,"Running Deer Trail, Apache Shores, TX 78734, USA",Running Deer And Deeba in Austin (TX),30.3749794,-97.92597169999999,1,78734,OK
759,"W Parmer Ln, Texas, USA",Parmer & Mcneil - Woodrows Bar in Austin (TX),30.4616149,-97.7549452,3,,OK
760,"2417 W Slaughter Ln, Austin, TX 78748, USA",2417 W. Slaughter Ln in Austin (TX),30.1754271,-97.83006019999999,1,78748,OK
761,"7700 Beauregard Cir, Austin, TX 78745, USA",7700 Beauregard Cir in Austin (TX),30.1945218,-97.81119670000001,1,78745,OK
762,"FM812, Texas, USA",Fm 812 & Doyle Overton Rd. in Del Valle (TX),30.0982065,-97.6037396,2,,OK
763,"2200 Perry Ave, Austin, TX 78704, USA",2200 Blk Perry Ave in Austin (TX),30.2454247,-97.7652349,1,78704,OK
764,"Lyons Rd & Tillery St, Austin, TX 78702, USA",Tillery St And Lyons in Austin (TX),30.2624782,-97.70385360000002,1,78702,OK
765,"Bolm Rd & Airport Blvd, Austin, TX 78702, USA",Bolm Rd And Airport Blvd in Austin (TX),30.2600671,-97.6938717,1,78702,OK
766,"12241 Paloma Blanca Way, Del Valle, TX 78617, USA",12241 Paloma Blanca Way in Del Valle (TX),30.1687586,-97.6308037,1,78617,OK
767,"3101 W Terrace Dr, Austin, TX 78757, USA",3101 West Terrace Drive in Austin (TX),30.3452576,-97.7488214,1,78757,OK
768,"1605 Barney Dr, Austin, TX 78734, USA",1605 Barney Drive in Austin (TX),30.376022,-97.936702,1,78734,OK
769,"7201 Levander Loop, Austin, TX 78702, USA",7201 Levander Loop in Austin (TX),30.2527847,-97.6904186,1,78702,OK
770,"Montopolis Dr, Austin, TX 78741, USA",Montopolis/Hogan in Austin (TX),30.2364762,-97.70143069999999,1,78741,OK
771,"4106 N Lamar Blvd, Austin, TX 78756, USA",4106 N Lamar Blvd in Austin (TX),30.3094768,-97.7407154,1,78756,OK
772,"9110 Nuckols Crossing Rd, Austin, TX 78744, USA",9110 Nuckols Crossing in Austin (TX),30.158944,-97.764752,1,78744,OK
773,"2337 E Cesar Chavez St, Austin, TX 78702, USA",2337 E Cesar Chavez in Austin (TX),30.2545306,-97.7179302,1,78702,OK
774,"851 Smoke Signal Pass, Pflugerville, TX 78660, USA",851 Smoke Signal Pass in Austin (TX),30.43657949999999,-97.6397022,1,78660,OK
775,"1144 Airport Blvd, Austin, TX 78702, USA",1144 Airport Boulevard in Austin (TX),30.271687,-97.69776069999999,1,78702,OK
776,"Amherst Dr, Austin, TX, USA",Mosley And Amherst Dr in Austin (TX),30.41764809999999,-97.71809010000001,1,,OK
777,"Roxanna Dr & Monarch Dr, Austin, TX 78748, USA",Monarch Dr And Roxanna Dr in Austin (TX),30.1780549,-97.8266254,1,78748,OK
778,"8311 Research Blvd, Austin, TX 78758, USA",8311 Research Blvd in Austin (TX),30.3563746,-97.714897,1,78758,OK
779,"5801 Saticoy Dr, Austin, TX 78724, USA",5801 Satacoy Drive in Austin (TX),30.285173,-97.63864,1,78724,OK
780,"Tipton Dr & Norwood Hill Rd, Austin, TX 78723, USA",Tipton Dr And Norwood Hill Rd in Austin (TX),30.2982621,-97.6795203,1,78723,OK
781,"1101 Traci Michelle Dr, Pflugerville, TX 78660, USA",1101 Tracy Michelle Dr in Pflugerville (TX),30.4387271,-97.6581913,1,78660,OK
782,"12709 N Mopac Expy, Austin, TX 78727, USA",12709 North Mopac in Austin (TX),30.4237351,-97.702057,1,78727,OK
783,"8701 Panadero Dr, Austin, TX 78747, USA",8701 Panadero Dr in Austin (TX),30.1516566,-97.74585049999999,1,78747,OK
784,,3210 Northeast #A in Austin (TX),,,0,,REQUEST_DENIED
785,"Reicher Dr & Rogge Ln, Austin, TX 78723, USA",Reicher Dr And Rogge Ln in Austin (TX),30.3027181,-97.67755319999999,1,78723,OK
786,"Ferguson Ln & Springdale Rd, Walnut Place, TX 78754, USA",Springdale And Ferguson in Austin (TX),30.3363251,-97.65156569999999,1,78754,OK
787,"Harris Ave & Harris Park Ave, Austin, TX 78705, USA",Harris Ave And Harris Park in Austin (TX),30.2951579,-97.72965049999999,2,78705,OK
788,"15800 Sambuca Cir, Austin, TX 78728, USA",15800 Sambuca Circle in Austin (TX),30.4649061,-97.6866709,1,78728,OK
789,"US-183 & E 51st St, Austin, TX 78723, USA",Hwy 183 And  51St  St in Austin (TX),30.2925341,-97.664058,1,78723,OK
790,"Farm to Market 1626, Texas, USA",Fm 1626 & Manchaca in Austin (TX),30.0756614,-97.8743678,2,,OK
791,"Loyola Ln, Texas, USA",Loyola Ln & Bryn Mawr Dr in Austin (TX),30.3011411,-97.6500635,10,,OK
792,"1605 Glenvalley Dr, Austin, TX 78723, USA",1605 Glen Valley in Austin (TX),30.3168193,-97.6929471,1,78723,OK
793,"Bluff Springs Rd & Nelms Dr, Austin, TX 78744, USA",Nelms And Bluff Springs Rd in Austin (TX),30.1927864,-97.7651502,1,78744,OK
794,"W Braker Ln, Austin, TX, USA",Braker Lane & Stonelake Blvd in Austin (TX),30.3903915,-97.7152524,5,,OK
795,"W Courtyard Dr & Shepherd Mountain Cove, Austin, TX 78730, USA",Courtyard Dr And Shepherd Mt Cove in Austin (TX),30.356373,-97.797681,1,78730,OK
796,"5902 Thames Dr, Austin, TX 78723, USA",5902 Thames Drive in Austin (TX),30.3116886,-97.68730699999999,1,78723,OK
797,"5303 Samuel Huston Ave, Austin, TX 78721, USA",Samuel Huston Ave And Hwy 183 in Austin (TX),30.28080529999999,-97.67688249999999,1,78721,OK
798,"E 13th St, New York, NY, USA",E. 13Th St & Maple Ave in Austin (TX),40.7306517,-73.9830602,1,,OK
799,"6900 E Riverside Dr, Austin, TX 78741, USA",6900 E Riverside in Austin (TX),30.2226437,-97.69682759999999,1,78741,OK
800,,5400 Freidrich Ln #14 in Austin (TX),,,0,,REQUEST_DENIED
801,"6811 Austin Center Blvd #400, Austin, TX 78731, USA",Mopac And Farwest in Austin (TX),30.350825,-97.75047529999999,1,78731,OK
802,"1730 E Oltorf St, Austin, TX 78741, USA",1730 E Oltorf St in Austin (TX),30.23373699999999,-97.737663,1,78741,OK
803,"6229 Turnersville Rd, Creedmoor, TX 78610, USA",6229 Turnersville Rd in Creedmoor (TX),30.06451299999999,-97.737104,1,78610,OK
804,"1710 Wooten Park Dr, Austin, TX 78757, USA",1710 Wooten Park Dr in Austin (TX),30.3529591,-97.722703,1,78757,OK
805,"11609 Crosstimber Dr, Austin, TX 78750, USA",11609 Crosstimber Dr in Austin (TX),30.448317,-97.80924259999999,1,78750,OK
806,"Austin, TX, USA",Von Quintus And Majalu in Austin (TX),30.267153,-97.7430608,1,,OK
807,"6215 Brookside Dr, Austin, TX 78723, USA",6215 Brookside Dr in Austin (TX),30.3189385,-97.693456,1,78723,OK
808,"E Martin Luther King Jr Blvd & Eastdale Dr, Austin, TX 78723, USA",Mlk And Eastdale in Austin (TX),30.2865008,-97.6704544,1,78723,OK
809,"River Oaks Trail & Spring Hill Dr, Austin, TX 78753, USA",Spring Hill Dr And River Oaks Trail in Austin (TX),30.3814436,-97.670271,1,78753,OK
810,"Narrow Valley Dr, Cedar Park, TX 78613, USA",Narrow Valley in Cedar Park (TX),30.4767451,-97.8499727,1,78613,OK
811,,8413 Riverstone Dr #A in Austin (TX),,,0,,REQUEST_DENIED
812,,3404 Webberville Rd #3401 in Austin (TX),,,0,,REQUEST_DENIED
813,"Crystal Bend Dr, Texas, USA",Crystal Bend Dr And Emmanuel Dr in Travis (TX),30.4039783,-97.62488119999999,1,,OK
814,"2506 W Parmer Ln, Austin, TX 78727, USA",2506 West Parmer Lane in Austin (TX),30.4208827,-97.7011512,1,78727,OK
815,"6004 Whipple Way, Austin, TX 78745, USA",6004 Whipple Way in Austin (TX),30.215969,-97.80963,1,78745,OK
816,"9600 Los Cielos Blvd, Del Valle, TX 78617, USA",9600 Bl Bear Claw in Austin (TX),30.1677208,-97.6250247,2,78617,OK
817,"9300 TX-71, Austin, TX 78736, USA",9300 Block West Hwy 71 in Austin (TX),30.259825,-97.90594,1,78736,OK
818,,1515 Royal Crest #3110 in Austin (TX),,,0,,REQUEST_DENIED
819,"Poinsetta Ln & Quicksilver Blvd, Austin, TX 78744, USA",Quicksilver Blvd And Poinsetta Ln in Austin (TX),30.17355,-97.76079539999999,1,78744,OK
820,"16901 Hayride Cir, Del Valle, TX 78617, USA",16901 Hayride Circle in Travis (TX),30.14113249999999,-97.5758163,1,78617,OK
821,"St Patricks Pl & Sweet Leaf Ln, Brookfield Estates, TX 78660, USA",Sweet Leaf And St Patricks in Pflugerville (TX),30.4208374,-97.63070479999999,1,78660,OK
822,"Von Quintus Rd, Texas, USA",Von Quintus Rd & Burklund Farms Rd in Travis (TX),30.1023248,-97.6794158,1,,OK
823,"12221 N Mopac Expy, Austin, TX 78759, USA",12221 North Mopac Express Way in Austin (TX),30.4114435,-97.70628219999999,1,78759,OK
824,"5703 Blythewood Dr, Austin, TX 78745, USA",5703 Blythwood Dr in Austin (TX),30.2061539,-97.7813822,1,78745,OK
825,"301 Nature Center Dr, Austin, TX 78746, USA",301 Nature Center Dr in Austin (TX),30.2721589,-97.7749707,1,78746,OK
826,"7707 S IH 35 Frontage Rd, Austin, TX 78744, USA",Bluff Springs And Alegria Pass in Austin (TX),30.1794506,-97.7747186,1,78744,OK
827,"2751 TX-71, Del Valle, TX 78617, USA",2751 Tx Hwy 71 East in Austin (TX),30.2108776,-97.6527583,1,78617,OK
828,"1106 Algarita Ave, Austin, TX 78704, USA",1106 Algarita Ave in Austin (TX),30.238451,-97.7429222,1,78704,OK
829,"10616 Mellow Meadow Dr, Austin, TX 78750, USA",10616 Mellow Meadows in Austin (TX),30.46053749999999,-97.7997398,1,78750,OK
830,"10005 Derringer Trail, Austin, TX 78753, USA",10005 Derringer Trl in Austin (TX),30.3668589,-97.68777349999999,1,78753,OK
831,"E Parmer Ln & S IH 35 Frontage Rd, Austin, TX 78753, USA",Parmer And Ih 35 in Austin (TX),30.4079717,-97.6752518,1,78753,OK
832,"13517 Briarcreek Loop, Manor, TX 78653, USA",13517 Briarcreek Loop in Travis (TX),30.3159758,-97.52998099999999,1,78653,OK
833,"Duval St & E 45th St, Austin, TX 78751, USA",45Th St And Duval in Austin (TX),30.3070066,-97.72458929999999,1,78751,OK
834,"12000 Metric Blvd, Austin, TX 78758, USA",12000 Metric Boulevard in Austin (TX),30.402561,-97.70199199999999,1,78758,OK
835,"Elroy Rd & Ross Rd, Austin, TX 78617, USA",Elroy Rd And Ross Rd in Travis (TX),30.1561758,-97.640998,1,78617,OK
836,"E Ben White Blvd, Austin, TX, USA",E Ben White Blvd & W Ben White Blvd & S Congress Ave in Austin (TX),30.2138555,-97.721227,1,,OK
837,"McKinney Falls Pkwy & S Hwy 183, Austin, TX 78744, USA",Mckinney Falls And 183 in Austin (TX),30.1983853,-97.68424879999999,1,78744,OK
838,"11901 Pavilion Blvd, Austin, TX 78759, USA",183 And Pavilion in Austin (TX),30.42474899999999,-97.75459599999999,1,78759,OK
839,"124 W Anderson Ln, Austin, TX 78752, USA",124 West Anderson Lane in Austin (TX),30.3446809,-97.70522550000001,1,78752,OK
840,"6506 Bolm Rd, Austin, TX 78721, USA",Bolm And Hwy 183 in Austin (TX),30.2543786,-97.6806323,2,78721,OK
841,"15140 Donna Jane Loop, Pflugerville, TX 78660, USA",15140 Donna Jane Loop in Travis (TX),30.4390751,-97.6568349,1,78660,OK
842,"E Riverside Dr, Austin, TX, USA",E Riverside Dr & Parker Ln in Austin (TX),30.2313978,-97.7166548,1,,OK
843,"4901 Carsonhill Dr, Austin, TX 78723, USA",4901 Carsonhill Dr in Austin (TX),30.2904885,-97.6746714,1,78723,OK
844,"6300 Carson Ridge, Austin, TX 78741, USA",6300 Carson Ridge in Austin (TX),30.2207672,-97.7059259,1,78741,OK
845,"9000 Bird Brook Ln, Austin, TX 78747, USA",9000 Bird Brook Ln in Austin (TX),30.1497545,-97.7446622,1,78747,OK
846,"9849 Childress Dr, Austin, TX 78753, USA",9849 Childress Drive in Austin (TX),30.3592023,-97.6756465,1,78753,OK
847,"Thrasher Ln & E Riverside Dr, Austin, TX 78741, USA",Riverside/ Thrasher in Austin (TX),30.2233281,-97.6997584,1,78741,OK
848,"Webberville Rd & Hunters Bend Rd, Austins' Colony, TX 78724, USA",Webberville Rd And Hunters Bend Rd in Austin (TX),30.2474718,-97.58302119999999,1,78724,OK
849,"1615 Westmoor Dr, Austin, TX 78723, USA",1615 Westmoor Dr in Austin (TX),30.3068956,-97.69723049999999,1,78723,OK
850,"1909 Blue Meadow Dr, Austin, TX 78744, USA",1909 Blue Meadow in Austin (TX),30.18276269999999,-97.76723319999999,1,78744,OK
851,"7505 Old Lockhart Rd, Buda, TX 78610, USA",7505 Old Lockhart Drive in Travis (TX),30.060878,-97.711316,1,78610,OK
852,"10007 Quail Blvd, Austin, TX 78758, USA",10007 Quail Blvd in Austin (TX),30.3695744,-97.700398,1,78758,OK
853,"7201 Levander Loop, Austin, TX 78702, USA",7201 Levander Loop in Austin (TX),30.2527847,-97.6904186,1,78702,OK
854,"6905 Point N Dr, Austin, TX 78724, USA",6905 Point North Drive in Austin (TX),30.3081202,-97.6374139,1,78724,OK
855,"17000 Bridgefarmer Blvd, Pflugerville, TX 78660, USA",17000 Bridgefarmer Blvd in Pflugerville (TX),30.4510078,-97.5516366,1,78660,OK
856,"Cedar Ave & E 18th St, Austin, TX 78702, USA",E 18Th St And Cedar Ave in Austin (TX),30.2797338,-97.7140546,1,78702,OK
857,"Ross Rd, Texas 78617, USA",Ross Rd/Pierce Lane in Del Valle (TX),30.17017869999999,-97.62266249999999,1,78617,OK
858,"Tudor House Rd & Coronation Way, Brookfield Estates, TX 78660, USA",Coronation Way And Tudor House in Pflugerville (TX),30.4278689,-97.6409115,1,78660,OK
859,"2406 E Stassney Ln, Austin, TX 78744, USA",2406 E Stassney Ln in Austin (TX),30.1938737,-97.75119819999999,1,78744,OK
860,"N Interstate 35 Frontage Rd, Texas, USA",N Interstate 35 Frontage Rd & E Riverside Dr in Austin (TX),30.260084,-97.73616679999999,4,,OK
861,"Slaughter Pen Trail, 203 NE 3rd St, Bentonville, AR 72712, USA",Slaughter & Ih 35 in Austin (TX),36.375632,-94.207537,1,72712,OK
862,"605 Canyon Rim Dr, Austin, TX 78746, USA",605 Canyon Rim Dr in Austin (TX),30.2952394,-97.8465911,1,78746,OK
863,"1800 E Stassney Ln, Austin, TX 78744, USA",1800 East Stassney in Austin (TX),30.197707,-97.761929,1,78744,OK
864,"E Oltorf St & Parker Ln, Austin, TX 78741, USA",Parker And Oltorf in Austin (TX),30.232315,-97.73693790000002,1,78741,OK
865,"N Lamar Blvd & W Braker Ln, Austin, TX 78753, USA",Braker Ln And N Lamar Blvd in Austin (TX),30.38188359999999,-97.6863975,1,78753,OK
866,"4802 Turnstone Dr, Austin, TX 78744, USA",4802 Turnstone Dr in Austin (TX),30.1876324,-97.74704949999999,1,78744,OK
867,"Sara Dr & Berger St, Austin, TX 78721, USA",Sara Dr And Berger St in Austin (TX),30.2687568,-97.6882438,1,78721,OK
868,"12844 St Mary Dr, Manor, TX 78653, USA",12844 St Mary Drive in Manor (TX),30.3449598,-97.52940989999999,1,78653,OK
869,"4014 W William Cannon Dr, Austin, TX 78749, USA",4014 W William Cannon Dr in Austin (TX),30.219592,-97.835475,1,78749,OK
870,"1701 W Ben White Blvd, Austin, TX 78704, USA",1701 W Ben White Blvd in Austin (TX),30.2277438,-97.7852814,1,78704,OK
871,"10610 Morado Cir, Austin, TX 78759, USA",10610 Morado Cir in Austin (TX),30.4049439,-97.75238069999999,1,78759,OK
872,"7709 Huddleston Ln, Austin, TX 78745, USA",7709 Huddleston Ln in Austin (TX),30.1880669,-97.7984539,1,78745,OK
873,"12117 Manchaca Rd, Austin, TX 78748, USA",12117 Manchaca Rd in Travis (TX),30.1413925,-97.83260969999999,1,78748,OK
874,"2906 E Martin Luther King Jr Blvd, Austin, TX 78702, USA",2906 E Martin Luther King Jr Blvd in Austin (TX),30.2833132,-97.7079597,1,78702,OK
875,"11821 Savanna Canyon Ct, Del Valle, TX 78617, USA",11821 Savanna Canyon Court in Del Valle (TX),30.1603164,-97.641821,1,78617,OK
876,"1 Mercy Ln, Hot Springs, AR 71913, USA",Gunter St & Munson St in Austin (TX),34.467688,-93.068001,1,71913,OK
877,"12612 N Lamar Blvd, Austin, TX 78753, USA",12612 North Lamar Boulevard in Austin (TX),30.4106565,-97.6789737,1,78753,OK
878,"6111 Shumard Oak, Austin, TX 78735, USA",6111 Shumard Oak in Austin (TX),30.250307,-97.88352100000002,1,78735,OK
879,"W Slaughter Ln, Austin, TX, USA",W Slaughter Ln & Brodie Ln in Austin (TX),30.182426,-97.84734519999999,1,,OK
880,"4601 Granny Dr, Del Valle, TX 78617, USA",4601 Granny Drive in Travis (TX),30.184072,-97.55135299999999,1,78617,OK
881,"Manchaca Rd & Davis Ln, Austin, TX 78745, USA",Davis And Manchaca in Austin (TX),30.1859274,-97.8162559,1,78745,OK
882,"Tee Dr & Nuckols Crossing Rd, Texas 78744, USA",Tee Dr And Nuckols Crossing Rd in Austin (TX),30.1592284,-97.75152489999999,1,78744,OK
883,"2435 Oak Crest Ave, Austin, TX 78704, USA",2435 Oak Crest Ave in Austin (TX),30.2420267,-97.76245970000001,1,78704,OK
884,"E Cesar Chavez St, Austin, TX, USA",E Cesar Chavez St & Chicon St in Austin (TX),30.2557422,-97.72070889999999,1,,OK
885,"Tall Shadows Dr & Carson Creek Blvd, Austin, TX 78617, USA",Tall Shadows Drive And Carson Creek Blvd in Austin (TX),30.2244925,-97.668146,1,78617,OK
886,"Anderson Mill Rd & Lime Creek Rd, Texas 78613, USA",Lime Creek Rd And Anderson Mill Rd in Travis (TX),30.4901584,-97.8604244,1,78613,OK
887,"Gus Fruh, 2642 Barton Hills Dr, Austin, TX 78704, USA",Greenbelt At Gus Fruh in Austin (TX),30.2479127,-97.7964269,2,78704,OK
888,"Colony Creek Dr & Briardale Dr, Austin, TX 78758, USA",Briardale Dr And Colony Creek Dr in Austin (TX),30.3673182,-97.71312929999999,1,78758,OK
889,"Hudson Bend Rd & Beacon Dr, Hudson Bend, TX 78734, USA",Hudson Bend Rd And Beacon Dr in Travis (TX),30.4121072,-97.9268415,1,78734,OK
890,"Patrica St & Pamela St, Wells Branch, TX 78728, USA",Patricia St And Pamela St in Austin (TX),30.451625,-97.6696273,1,78728,OK
891,"14508 Harris Ridge Blvd, Pflugerville, TX 78660, USA",14508 Harris Ridge Blvd in Austin (TX),30.4219369,-97.6446429,1,78660,OK
892,"5605 Nuckols Crossing Rd, Austin, TX 78744, USA",5605 Nuckols Crossing in Austin (TX),30.1887131,-97.7400827,1,78744,OK
893,"104 E Longspur Blvd, Austin, TX 78753, USA",104 East Longspur Blvd in Austin (TX),30.3657121,-97.68976649999999,1,78753,OK
894,"12034 Research Blvd, Austin, TX 78759, USA",12034 Research Blvd in Austin (TX),30.42535759999999,-97.7529038,1,78759,OK
895,"515 S Pleasant Valley Rd, Austin, TX 78741, USA",515 S Pleasant Valley Rd in Austin (TX),30.2464427,-97.7139279,1,78741,OK
896,"11300 Samsung Blvd, Austin, TX 78754, USA",11300 Samsung Blvd in Austin (TX),30.3620772,-97.6399776,1,78754,OK
897,"10705 Lambert Cir, Austin, TX 78758, USA",10705 Lambert Cir in Austin (TX),30.3817929,-97.7009204,1,78758,OK
898,"Wells Branch Pkwy & Dessau Rd, Pflugerville, TX 78660, USA",Dessau And Wells Branch in Travis (TX),30.4247737,-97.62655079999999,2,78660,OK
899,"W 32nd St & Speedway, Austin, TX 78705, USA",W 32Nd St And Speedway in Austin (TX),30.2967622,-97.7359487,1,78705,OK
900,"2305 Mission Hill Dr, Austin, TX 78741, USA",2305 Mission Hill Dr in Austin (TX),30.2164962,-97.73689610000001,1,78741,OK
901,"4434 Frontier Trail, Austin, TX 78745, USA",4434 Frontier Trl in Austin (TX),30.23144,-97.795757,1,78745,OK
902,"1717 Cricket Hollow Dr, Austin, TX 78758, USA",1717 Cricket Hollow in Austin (TX),30.3863534,-97.7047801,1,78758,OK
903,"1900 I-35, Round Rock, TX 78681, USA",1900 N Ih 35 Sb Service in Austin (TX),30.4926807,-97.67875719999999,1,78681,OK
904,"912 US-183, Austin, TX 78741, USA",912 Us Highway 183 S in Austin (TX),30.2264955,-97.68319620000001,1,78741,OK
905,"Littig Rd & Ballerstedt Rd, Texas 78653, USA",Littig Rd And Ballerstedt Rd in Travis (TX),30.3236325,-97.469066,1,78653,OK
906,"9420 N Interstate Hwy 35, Austin, TX 78753, USA",9420 N Interstate Hwy 35 in Austin (TX),30.3596314,-97.6885156,1,78753,OK
907,"9900 S IH 35 Frontage Rd, Austin, TX 78748, USA",9900 South I H 35 in Austin (TX),30.1562152,-97.7929128,1,78748,OK
908,"Plains Valley Dr, Stony Ridge North, TX 78617, USA",118616 Plains Valley Dr in Travis (TX),30.1618934,-97.63958810000001,1,78617,OK
909,"10600 Lakeline Mall Dr, Austin, TX 78717, USA",10600 Lakeline Mall in Austin (TX),30.4766829,-97.7901254,1,78717,OK
910,"6800 N Lamar Blvd, Austin, TX 78752, USA",6800 North Lamar in Austin (TX),30.3359112,-97.7206398,1,78752,OK
911,"US-183, United States",Hwy 183 & Planeview in Austin (TX),36.0977518,-98.9541854,6,,OK
912,"1111 Rutland Dr, Austin, TX 78758, USA",1111 Rutland Drive in Austin (TX),30.3679817,-97.703023,1,78758,OK
913,"Proud Panda Dr & Gemmer St, Austin, TX 78617, USA",Gemmers Street And Proud Panda Drive Austin in Del Valle (TX),30.1584719,-97.6446412,1,78617,OK
914,"Beyer HS - Sylvan Ave & Boyce Ln, Modesto, CA 95355, USA",Boyce Ln & Innes View Rd in Austin (TX),37.68889,-120.9661,1,95355,OK
915,"12717 Waynespur Ln, Elgin, TX 78621, USA",12717 Waynespur Ln in Travis (TX),30.344565,-97.435137,1,78621,OK
916,"Riverstone Dr & Garcreek Cir, Austin, TX 78724, USA",Garcreek Circle And Riverstone Drive in Austin (TX),30.2933925,-97.63032969999999,1,78724,OK
917,"8213 Spring Valley Dr, Austin, TX 78736, USA",8213 Spring Valley Drive in Austin (TX),30.2391186,-97.8936978,1,78736,OK
918,"Linden St, Austin, TX 78702, USA",Linden/Montopolis in Austin (TX),30.26321799999999,-97.705882,2,78702,OK
919,"11905 Athens Trail, Austin, TX 78729, USA",11905 Athens Trail in Austin (TX),30.4565599,-97.7562035,1,78729,OK
920,"Thompson St & Gunter St, Austin, TX 78702, USA",Gunter Street And Tompson Street in Austin (TX),30.2661926,-97.69829879999999,1,78702,OK
921,"5011 E Cesar Chavez St, Austin, TX 78702, USA",5011 E Cesar Chavez St in Austin (TX),30.2510671,-97.699542,1,78702,OK
922,"Sweeney Cir, Austin, TX 78723, USA",Manor And Sweeney Circle in Austin (TX),30.3056903,-97.6792402,1,78723,OK
923,"US-183, Austin, TX, USA",Georgian And Hwy 183 in Austin (TX),30.2486008,-97.6913292,1,,OK
924,"S 1st St & W Stassney Ln, Austin, TX 78745, USA",South 1St And Stassney Ln in Austin (TX),30.2084327,-97.7815497,1,78745,OK
925,"S 5th St, Austin, TX 78704, USA",South 5Th And Garden Villa in Austin (TX),30.2452205,-97.764029,2,78704,OK
926,"Royal Hill Dr & N Interstate 35 Frontage Rd, Austin, TX 78741, USA",S Ih 35 Frontage Rd And Royal Hill Dr in Austin (TX),30.2282194,-97.74399939999999,1,78741,OK
927,"5252 Mission Cir, Del Valle, TX 78617, USA",5252 Mission Cir in Travis (TX),30.176685,-97.628649,1,78617,OK
928,"2900 E Cesar Chavez St, Austin, TX 78702, USA",2900 E Cesar Chavez St in Austin (TX),30.2527979,-97.71160940000001,1,78702,OK
929,"Daffan Ln, Texas 78724, USA",Daffan Ln  & Decker Lane in Austin (TX),30.3167184,-97.6232646,1,78724,OK
930,"12211 Old Stage Trail, Austin, TX 78750, USA",12211 Old Stage Trl in Austin (TX),30.4529406,-97.79849639999999,1,78750,OK
931,"14811 Chicadee Cir, Pflugerville, TX 78660, USA",14811 Chicadee in Pflugerville (TX),30.419158,-97.62317739999999,1,78660,OK
932,"1224 S Lamar Blvd, Austin, TX 78704, USA",Cesar Chavez And Lamar in Austin (TX),30.2540826,-97.7630897,1,78704,OK
933,"Tara Dr & Salt Springs Dr, Austin, TX 78747, USA",Tara Drive/Salt Springs in Austin (TX),30.1634729,-97.7428863,1,78747,OK
934,"1720 Woodward St, Austin, TX 78741, USA",1720 Woodward St in Austin (TX),30.220604,-97.7441838,1,78741,OK
935,"9002 Magna Carta Loop, Austin, TX 78754, USA",9002 Magna Carta Loop in Austin (TX),30.3361271,-97.6454656,1,78754,OK
936,"Manchaca Rd & Berkeley Ave, Austin, TX 78745, USA",Manchaca Rd And Berkeley Ave in Austin (TX),30.2085853,-97.8048682,1,78745,OK
937,"W Dittmar Rd & Dempsey Ln, Austin, TX 78748, USA",Dempsey And West Ditmar in Austin (TX),30.1855116,-97.8095457,1,78748,OK
938,"3608 Sand Dunes Ave, Austin, TX 78744, USA",3608 Sand Dunes Ave in Austin (TX),30.1991024,-97.6929047,1,78744,OK
939,"1609 W Braker Ln, Austin, TX 78758, USA",1609 W Braker Ln in Austin (TX),30.388753,-97.70120299999999,1,78758,OK
940,"2003 Kenwood Ave, Austin, TX 78704, USA",2003 Kenwood Ave in Austin (TX),30.2391179,-97.7430071,1,78704,OK
941,"E Cesar Chavez St & S IH 35 Frontage Rd, Austin, TX 78701, USA",Cesar Chavez St And Ih 35 in Austin (TX),30.2612203,-97.7367715,1,78701,OK
942,"8038 Exchange Dr, Austin, TX 78754, USA",8038 Exchange Dr in Austin (TX),30.3325718,-97.6646274,1,78754,OK
943,"2305 E 16th St, Austin, TX 78702, USA",2305 E. 16Th St. in Austin (TX),30.2771775,-97.7159363,1,78702,OK
944,"19150 Lockwood Rd, Manor, TX 78653, USA",19150 Lockwood Rd in Travis (TX),30.3080044,-97.5150237,1,78653,OK
945,"1148 Airport Blvd, Austin, TX 78702, USA",1148 Airport Blvd in Austin (TX),30.2722965,-97.6988209,1,78702,OK
946,"Manor Rd, Austin, TX, USA",Manor Rd & E 51St St in Austin (TX),30.2978623,-97.6872269,7,,OK
947,"124 W Anderson Ln, Austin, TX 78752, USA",124 W Anderson Ln in Austin (TX),30.3446809,-97.70522550000001,1,78752,OK
948,"TX-1 Loop, Texas, USA",Mopac And Far West in Austin (TX),30.3216412,-97.756158,1,,OK
949,"6801 Ashprington Ln, Austin, TX 78754, USA",6801 Ashprington Ln in Austin (TX),30.3506969,-97.61193809999999,1,78754,OK
950,"1703 Ranch Rd 620 S, Lakeway, TX 78734, USA",1703 Ranch Rd 620 S in Travis (TX),30.3458494,-97.9643734,1,78734,OK
951,"1113 Banister Ln, Austin, TX 78704, USA",1113 Banister Lane in Austin (TX),30.2297428,-97.777221,1,78704,OK
952,"Emerald Forest Dr & Sahara Ave, Austin, TX 78745, USA",Emerald Forest And Sahara Ave in Austin (TX),30.2065711,-97.7897084,1,78745,OK
953,"6200 Loyola Ln, Austin, TX 78724, USA",6200 Loyola Lane in Austin (TX),30.3029683,-97.6496185,1,78724,OK
954,"1900 S 1st St, Austin, TX 78704, USA",1900 South First in Austin (TX),30.2464961,-97.7568435,1,78704,OK
955,"4531 Southwest Dr, Austin, TX 78744, USA",4531 Southwest Dr in Austin (TX),30.1928677,-97.7465793,1,78744,OK
956,"Burleson, TX, USA",Burleson & Oltorf in Austin (TX),32.5420821,-97.3208492,1,,OK
957,"6600 Ed Bluestein Blvd, Austin, TX 78723, USA",6600 Ed Bluestein in Austin (TX),30.3057946,-97.66268529999999,1,78723,OK
958,"1644 E 3rd St, Austin, TX 78702, USA",1644 Easth Thrid Street in Travis (TX),30.2599014,-97.72622369999999,1,78702,OK
959,"Bolm Rd & Airport Blvd, Austin, TX 78702, USA",Airport And Bolm in Austin (TX),30.2600671,-97.6938717,1,78702,OK
960,"1120 Brookswood Ave, Austin, TX 78721, USA",1120B Brookswood Ave. in Austin (TX),30.2652495,-97.6895545,1,78721,OK
961,"6800 Blue Dawn Trail, Austin, TX 78744, USA",6800 Blue Dawn Trl in Austin (TX),30.1832924,-97.76113079999999,1,78744,OK
962,"Burleson Rd, Texas, USA",Burleson Rd & Mckinney Falls Pkwy in Austin (TX),30.1953117,-97.7022331,1,,OK
963,"5411 Overbrook Dr, Austin, TX 78723, USA",5411 Overbrook Dr in Austin (TX),30.3014622,-97.6830242,1,78723,OK
964,"21606 Cherry Hollow Dr, Leander, TX 78641, USA",21606 Cherry Hollow Dr in Travis (TX),30.5189843,-97.9628078,1,78641,OK
965,"1000 E 41st St, Austin, TX 78751, USA",1000 E. 41St St. in Austin (TX),30.2998354,-97.7199409,1,78751,OK
966,"N Pleasant Valley Rd & E 7th St, Austin, TX 78702, USA",E 7Th St And Pleasant Valley in Austin (TX),30.2600704,-97.7094728,1,78702,OK
967,,6600 Elm Creek Dr #61 in Austin (TX),,,0,,REQUEST_DENIED
968,"Tiffany Trail & Von Quintus Rd, Texas 78719, USA",Von Quintus Rd And Tiffany Trail in Austin (TX),30.101997,-97.6797746,1,78719,OK
969,"4711 Brassiewood Dr, Austin, TX 78744, USA",4711 Brassiewood Dr in Austin (TX),30.18445609999999,-97.7497976,1,78744,OK
970,"Northeastern United States, USA",Northeast & Creighton Ln in Austin (TX),43.2994285,-74.21793260000001,1,,OK
971,"11712 Brookwood Rd, Austin, TX 78750, USA",11712 Brookwood Rd in Austin (TX),30.4412341,-97.7912128,1,78750,OK
972,"1001 E Ben White Blvd, Austin, TX 78704, USA",1001 East Ben White Boulevard in Austin (TX),30.216765,-97.7548601,1,78704,OK
973,"7101 Ed Bluestein Blvd, Austin, TX 78723, USA",7101 Ed Bluestein Blvd in Austin (TX),30.3125953,-97.6616095,1,78723,OK
974,"10610 Salt Mill Hollow, Austin, TX 78750, USA",10610 Salt Mill Hollow in Austin (TX),30.452836,-97.80685299999999,1,78750,OK
975,"1601 E Slaughter Ln, Austin, TX 78747, USA",1601 E Slaughter Ln in Austin (TX),30.1487835,-97.7694089,1,78747,OK
976,"4434 Frontier Trail, Austin, TX 78745, USA",4434  Frontier Trl in Austin (TX),30.23144,-97.795757,1,78745,OK
977,"500 W Canyon Ridge Dr, Austin, TX 78753, USA",500 W Canyon Ridge Dr in Austin (TX),30.40456349999999,-97.67271819999999,1,78753,OK
978,"5700 Steven Creek Way, Austin, TX 78721, USA",5700 Steven Creek Way in Austin (TX),30.2592847,-97.68663509999999,1,78721,OK
979,"13200 Lipton Loop, Del Valle, TX 78617, USA",13200 Lipton Loop in Austin (TX),30.170744,-97.615681,1,78617,OK
980,"10550 Maha Cir, Austin, TX 78747, USA",10550 Maha Circle in Austin (TX),30.1088415,-97.6970609,1,78747,OK
981,"7203 Southwind Dr, Austin, TX 78745, USA",7203 Southwind Dr in Austin (TX),30.2018912,-97.81234359999999,1,78745,OK
982,"1156 W Cesar Chavez St, Austin, TX 78703, USA",1156 W. Cesar Chavez in Austin (TX),30.269764,-97.7591144,1,78703,OK
983,"404 Ralph Ablanedo Dr, Austin, TX 78748, USA",404 Ralph Ablanedo in Austin (TX),30.1754953,-97.7932088,1,78748,OK
984,"12409 Drummond Dr, Austin, TX 78754, USA",12409 Drummond Dr in Travis (TX),30.3720673,-97.612629,1,78754,OK
985,"E Stassney Ln & S Congress Ave, Austin, TX 78745, USA",Congree Avenue And Stassany Lane in Austin (TX),30.2048849,-97.7748428,1,78745,OK
986,"1516 Desert Quail Ln, Austin, TX 78758, USA",1516 Desert Quail in Austin (TX),30.3737333,-97.7064874,1,78758,OK
987,"14300 Tandem Blvd, Austin, TX 78728, USA",14300 Tandem Blvd in Travis (TX),30.443138,-97.694103,1,78728,OK
988,"A, 7201 Levander Loop, Austin, TX 78702, USA",Hwy 183 And Levander Loop in Austin (TX),30.25147369999999,-97.68977249999999,1,78702,OK
989,"3309 Crownover St, Austin, TX 78725, USA",3309 Crownover St in Austin (TX),30.2306942,-97.5876835,1,78725,OK
990,"7201 Levander Loop, Austin, TX 78702, USA",7201 Levander Loop in Austin (TX),30.2527847,-97.6904186,1,78702,OK
991,"Fallwell Ln & Puebla Dr, Austin, TX 78617, USA",Fallwell Ln And Puebla Dr in Del Valle (TX),30.2053042,-97.6343062,1,78617,OK
992,"110 San Antonio St, Austin, TX 78701, USA",San Antonio And Cesar Chavez in Austin (TX),30.2653123,-97.7495447,1,78701,OK
993,"La Paz Ln, Austin, TX 78617, USA",La Paz Ln & Sky Park St in Del Valle (TX),30.1665861,-97.6277765,10,78617,OK
994,"Burleson Rd & Moores Bridge Rd, Texas 78719, USA",Burleson Rd And Moores Bridge Rd in Austin (TX),30.1703509,-97.6635591,1,78719,OK
995,"Cameron Loop, Austin, TX 78745, USA",Cameron Loop & Davis Lane in Austin (TX),30.1945401,-97.8306286,5,78745,OK
996,,7112 Ed Bluestein Blvd #125 in Austin (TX),,,0,,REQUEST_DENIED
997,"E 2nd St & Mildred St, Austin, TX 78702, USA",East Second And Mildred Street in Austin (TX),30.256147,-97.7188917,1,78702,OK
998,"E 12th St & McKinley Ave, Austin, TX 78702, USA",12Th St And Mckinley Ave in Austin (TX),30.2765691,-97.70233139999999,1,78702,OK
999,"9504 N Interstate 35 Frontage Rd, Austin, TX 78753, USA",Rundberg And Interstate 35 in Austin (TX),30.3609586,-97.68780489999999,2,78753,OK
